{"type":"FeatureCollection","features":[{"type":"Feature","properties":{"route_id":"01","version":"01-v1-20261006","name":"Lovers Paris base","distance_km_archived":8.925,"geometry_note":"simplified decision corridor, not dense router or survey"},"geometry":{"type":"LineString","coordinates":[[2.3375,48.8666],[2.34,48.8609],[2.3378,48.8583],[2.3506,48.8538],[2.3372,48.8496],[2.3155,48.8555],[2.2897,48.8555]]}},{"type":"Feature","properties":{"id":"L01","name":"Colette"},"geometry":{"type":"Point","coordinates":[2.3375,48.8666]}},{"type":"Feature","properties":{"id":"L02","name":"Pont des Arts"},"geometry":{"type":"Point","coordinates":[2.3378,48.8583]}},{"type":"Feature","properties":{"id":"L03","name":"Heloise Abelard"},"geometry":{"type":"Point","coordinates":[2.3506,48.8538]}},{"type":"Feature","properties":{"id":"L04","name":"Fontaine Medicis"},"geometry":{"type":"Point","coordinates":[2.3372,48.8496]}},{"type":"Feature","properties":{"id":"L05","name":"Rodin exterior"},"geometry":{"type":"Point","coordinates":[2.3155,48.8555]}},{"type":"Feature","properties":{"id":"L06","name":"Bir Hakeim"},"geometry":{"type":"Point","coordinates":[2.2897,48.8555]}}]}
