<?xml version="1.0" encoding="UTF-8"?>
<gpx version="1.1" creator="Cruce" xmlns="http://www.topografix.com/GPX/1/1">
  <metadata><name>01 Lovers Paris variants</name><desc>Independent simplified tracks; never concatenate automatically.</desc></metadata>
  <trk><name>V1_L01_L04_Luxembourg_fin</name><trkseg><trkpt lat="48.866600" lon="2.337500"/><trkpt lat="48.858300" lon="2.337800"/><trkpt lat="48.853800" lon="2.350600"/><trkpt lat="48.849600" lon="2.337200"/></trkseg></trk>
  <trk><name>V2_L04_L05_Varenne_fin</name><trkseg><trkpt lat="48.849600" lon="2.337200"/><trkpt lat="48.855500" lon="2.315500"/></trkseg></trk>
  <trk><name>V3_L05_Passy_viewpoint_schematic</name><desc>Transport not drawn; endpoints only.</desc><trkseg><trkpt lat="48.855500" lon="2.315500"/><trkpt lat="48.855500" lon="2.289700"/></trkseg></trk>
  <trk><name>V4_L02_L04_without_frontage_stop</name><trkseg><trkpt lat="48.858300" lon="2.337800"/><trkpt lat="48.849600" lon="2.337200"/></trkseg></trk>
</gpx>
