<?xml version='1.0' encoding='utf-8'?>
<gpx xmlns="http://www.topografix.com/GPX/1/1" version="1.1" creator="Cruce Paris route 02 production">
  <metadata>
    <name>Ruta 02 — variantes y conectores — 02-v10-20261004</name>
    <desc>Tracks independientes: elegir solo los de la variante usada. No sumarlos todos. El viaje en bus no tiene geometría ficticia. Trazas peatonales Valhalla/OSM, revisión 2026-10-04; sin inspección presencial. © colaboradores OSM, ODbL.</desc>
  </metadata>
  <wpt lat="48.8626116" lon="2.3540531">
    <name>Rambuteau salida 4, rue du Grenier Saint-Lazare</name>
    <desc>Punto de servicio/conector; no nuevo capítulo de la base.</desc>
  </wpt>
  <wpt lat="48.8614079" lon="2.3534645">
    <name>Rambuteau salida 1, rue Beaubourg</name>
    <desc>Punto de servicio/conector; no nuevo capítulo de la base.</desc>
  </wpt>
  <wpt lat="48.85465" lon="2.34494">
    <name>Sainte-Chapelle, acceso 10 boulevard du Palais</name>
    <desc>Punto de servicio/conector; no nuevo capítulo de la base.</desc>
  </wpt>
  <wpt lat="48.842573" lon="2.361884">
    <name>Bibliothèque Buffon, 15 bis rue Buffon</name>
    <desc>Punto de servicio/conector; no nuevo capítulo de la base.</desc>
  </wpt>
  <wpt lat="48.8404419" lon="2.3515106">
    <name>Metro Censier-Daubenton, acceso rue Monge</name>
    <desc>Punto de servicio/conector; no nuevo capítulo de la base.</desc>
  </wpt>
  <wpt lat="48.8549237" lon="2.3477855">
    <name>Bus 47 Cité–Parvis Notre-Dame, hacia el sur</name>
    <desc>Punto de servicio/conector; no nuevo capítulo de la base.</desc>
  </wpt>
  <wpt lat="48.8406244" lon="2.3516236">
    <name>Bus 47 Censier–Daubenton, llegada desde Notre-Dame</name>
    <desc>Punto de servicio/conector; no nuevo capítulo de la base.</desc>
  </wpt>
  <wpt lat="48.8406719" lon="2.3519653">
    <name>Bus 47 Censier–Daubenton, regreso hacia Châtelet</name>
    <desc>Punto de servicio/conector; no nuevo capítulo de la base.</desc>
  </wpt>
  <wpt lat="48.8551" lon="2.34692">
    <name>Llegada exterior Place Louis-Lépine, antes del metro Cité</name>
    <desc>No es el punto sobre la escalera ni un destino dentro del metro.</desc>
  </wpt>
  <wpt lat="48.853633" lon="2.349207">
    <name>V3, volver al norte antes del parvis</name>
    <desc>Punto de servicio/conector; no nuevo capítulo de la base.</desc>
  </wpt>
  <wpt lat="48.85402499987285" lon="2.3493969996309874">
    <name>WC 8 rue d'arcole</name>
    <desc>Punto de servicio/conector; no nuevo capítulo de la base.</desc>
  </wpt>
  <wpt lat="48.84164499972937" lon="2.3487010000881967">
    <name>WC 8 rue jean calvin</name>
    <desc>Punto de servicio/conector; no nuevo capítulo de la base.</desc>
  </wpt>
  <wpt lat="48.841318000011505" lon="2.3562390003168203">
    <name>WC 26 rue buffon</name>
    <desc>Punto de servicio/conector; no nuevo capítulo de la base.</desc>
  </wpt>
  <wpt lat="48.843135999716935" lon="2.3520940005625017">
    <name>WC 75b rue monge</name>
    <desc>Punto de servicio/conector; no nuevo capítulo de la base.</desc>
  </wpt>
  <trk>
    <name>rambuteau4_to_flamel — Acceso preferido: Rambuteau 4 → Flamel</name>
    <desc>0.176 km; approach; dataset rambuteau4_to_flamel. </desc>
    <trkseg>
      <trkpt lat="48.862618" lon="2.354093" />
      <trkpt lat="48.862674" lon="2.354129" />
      <trkpt lat="48.862722" lon="2.354159" />
      <trkpt lat="48.862743" lon="2.354171" />
      <trkpt lat="48.86277" lon="2.354186" />
      <trkpt lat="48.862781" lon="2.354193" />
      <trkpt lat="48.86282" lon="2.354213" />
      <trkpt lat="48.863189" lon="2.354425" />
      <trkpt lat="48.863217" lon="2.354442" />
      <trkpt lat="48.86325" lon="2.354376" />
      <trkpt lat="48.863384" lon="2.353886" />
      <trkpt lat="48.863552" lon="2.353296" />
      <trkpt lat="48.863589" lon="2.353125" />
      <trkpt lat="48.863589" lon="2.353125" />
    </trkseg>
  </trk>
  <trk>
    <name>rambuteau1_to_flamel — Acceso alternativo: Rambuteau 1 → Flamel</name>
    <desc>0.318 km; approach; dataset rambuteau1_to_flamel. </desc>
    <trkseg>
      <trkpt lat="48.861404" lon="2.353482" />
      <trkpt lat="48.861407" lon="2.353484" />
      <trkpt lat="48.861476" lon="2.353503" />
      <trkpt lat="48.861586" lon="2.353566" />
      <trkpt lat="48.861633" lon="2.353594" />
      <trkpt lat="48.861688" lon="2.353622" />
      <trkpt lat="48.861784" lon="2.353674" />
      <trkpt lat="48.862049" lon="2.353815" />
      <trkpt lat="48.862528" lon="2.354069" />
      <trkpt lat="48.862584" lon="2.354071" />
      <trkpt lat="48.862618" lon="2.354093" />
      <trkpt lat="48.862674" lon="2.354129" />
      <trkpt lat="48.862722" lon="2.354159" />
      <trkpt lat="48.862743" lon="2.354171" />
      <trkpt lat="48.86277" lon="2.354186" />
      <trkpt lat="48.862781" lon="2.354193" />
      <trkpt lat="48.86282" lon="2.354213" />
      <trkpt lat="48.863189" lon="2.354425" />
      <trkpt lat="48.863217" lon="2.354442" />
      <trkpt lat="48.86325" lon="2.354376" />
      <trkpt lat="48.863384" lon="2.353886" />
      <trkpt lat="48.863552" lon="2.353296" />
      <trkpt lat="48.863589" lon="2.353125" />
      <trkpt lat="48.863589" lon="2.353125" />
    </trkseg>
  </trk>
  <trk>
    <name>chevet_to_metro — Regreso: cabecera → Censier-Daubenton</name>
    <desc>0.076 km; exit; dataset chevet_to_metro. </desc>
    <trkseg>
      <trkpt lat="48.839894" lon="2.351143" />
      <trkpt lat="48.839918" lon="2.351184" />
      <trkpt lat="48.83993" lon="2.351206" />
      <trkpt lat="48.839941" lon="2.35122" />
      <trkpt lat="48.839944" lon="2.351285" />
      <trkpt lat="48.839962" lon="2.351318" />
      <trkpt lat="48.840172" lon="2.351432" />
      <trkpt lat="48.840319" lon="2.351527" />
      <trkpt lat="48.840392" lon="2.351553" />
      <trkpt lat="48.840438" lon="2.351474" />
      <trkpt lat="48.840454" lon="2.351475" />
    </trkseg>
  </trk>
  <trk>
    <name>medard_front_to_metro — V4 regreso: frente → Censier-Daubenton</name>
    <desc>0.136 km; exit; dataset medard_front_to_metro. </desc>
    <trkseg>
      <trkpt lat="48.84008" lon="2.349823" />
      <trkpt lat="48.840064" lon="2.349846" />
      <trkpt lat="48.840103" lon="2.350118" />
      <trkpt lat="48.840191" lon="2.350497" />
      <trkpt lat="48.840236" lon="2.350686" />
      <trkpt lat="48.840265" lon="2.35083" />
      <trkpt lat="48.840215" lon="2.350868" />
      <trkpt lat="48.84023" lon="2.350914" />
      <trkpt lat="48.840239" lon="2.350939" />
      <trkpt lat="48.840249" lon="2.350968" />
      <trkpt lat="48.840252" lon="2.35099" />
      <trkpt lat="48.840316" lon="2.351084" />
      <trkpt lat="48.840454" lon="2.351475" />
    </trkseg>
  </trk>
  <trk>
    <name>chevet_to_buffon — Refugio: cabecera → Buffon, solo abierta</name>
    <desc>0.910 km; refuge; dataset chevet_to_buffon. </desc>
    <trkseg>
      <trkpt lat="48.839894" lon="2.351143" />
      <trkpt lat="48.839918" lon="2.351184" />
      <trkpt lat="48.83993" lon="2.351206" />
      <trkpt lat="48.839941" lon="2.35122" />
      <trkpt lat="48.839944" lon="2.351285" />
      <trkpt lat="48.839962" lon="2.351318" />
      <trkpt lat="48.840172" lon="2.351432" />
      <trkpt lat="48.840165" lon="2.351459" />
      <trkpt lat="48.840145" lon="2.351536" />
      <trkpt lat="48.840125" lon="2.351611" />
      <trkpt lat="48.840118" lon="2.35164" />
      <trkpt lat="48.840095" lon="2.351644" />
      <trkpt lat="48.840101" lon="2.351665" />
      <trkpt lat="48.840129" lon="2.351734" />
      <trkpt lat="48.840237" lon="2.351992" />
      <trkpt lat="48.840331" lon="2.352166" />
      <trkpt lat="48.840525" lon="2.352627" />
      <trkpt lat="48.840542" lon="2.352635" />
      <trkpt lat="48.840579" lon="2.352626" />
      <trkpt lat="48.84059" lon="2.352648" />
      <trkpt lat="48.840661" lon="2.352694" />
      <trkpt lat="48.840698" lon="2.352721" />
      <trkpt lat="48.840723" lon="2.352724" />
      <trkpt lat="48.840735" lon="2.352773" />
      <trkpt lat="48.840729" lon="2.352799" />
      <trkpt lat="48.84071" lon="2.352872" />
      <trkpt lat="48.840688" lon="2.352952" />
      <trkpt lat="48.840683" lon="2.352972" />
      <trkpt lat="48.840655" lon="2.35299" />
      <trkpt lat="48.840579" lon="2.353292" />
      <trkpt lat="48.840583" lon="2.353372" />
      <trkpt lat="48.840705" lon="2.353855" />
      <trkpt lat="48.840928" lon="2.354711" />
      <trkpt lat="48.840933" lon="2.354735" />
      <trkpt lat="48.840954" lon="2.354821" />
      <trkpt lat="48.840972" lon="2.354895" />
      <trkpt lat="48.840975" lon="2.354909" />
      <trkpt lat="48.840975" lon="2.354928" />
      <trkpt lat="48.841187" lon="2.355736" />
      <trkpt lat="48.841278" lon="2.355811" />
      <trkpt lat="48.841286" lon="2.355828" />
      <trkpt lat="48.841323" lon="2.355914" />
      <trkpt lat="48.841354" lon="2.355988" />
      <trkpt lat="48.841357" lon="2.356007" />
      <trkpt lat="48.841326" lon="2.356037" />
      <trkpt lat="48.841271" lon="2.356091" />
      <trkpt lat="48.841333" lon="2.356447" />
      <trkpt lat="48.841528" lon="2.357167" />
      <trkpt lat="48.841685" lon="2.357766" />
      <trkpt lat="48.842024" lon="2.359081" />
      <trkpt lat="48.842137" lon="2.359516" />
      <trkpt lat="48.842612" lon="2.361368" />
      <trkpt lat="48.842604" lon="2.361368" />
      <trkpt lat="48.842585" lon="2.361379" />
      <trkpt lat="48.842564" lon="2.361392" />
      <trkpt lat="48.842549" lon="2.3614" />
      <trkpt lat="48.842519" lon="2.361512" />
      <trkpt lat="48.842608" lon="2.361863" />
    </trkseg>
  </trk>
  <trk>
    <name>chapel_out_and_back — Opcional: Notre-Dame → Sainte-Chapelle → Notre-Dame</name>
    <desc>0.789 km; optional; dataset chapel_out_and_back. </desc>
    <trkseg>
      <trkpt lat="48.85315" lon="2.348847" />
      <trkpt lat="48.85306" lon="2.348782" />
      <trkpt lat="48.853034" lon="2.348763" />
      <trkpt lat="48.853246" lon="2.348114" />
      <trkpt lat="48.85337" lon="2.347718" />
      <trkpt lat="48.853466" lon="2.347546" />
      <trkpt lat="48.853504" lon="2.347421" />
      <trkpt lat="48.853519" lon="2.347242" />
      <trkpt lat="48.853515" lon="2.347218" />
      <trkpt lat="48.853501" lon="2.3472" />
      <trkpt lat="48.853447" lon="2.347168" />
      <trkpt lat="48.853456" lon="2.34713" />
      <trkpt lat="48.853476" lon="2.347049" />
      <trkpt lat="48.853592" lon="2.347114" />
      <trkpt lat="48.853615" lon="2.346994" />
      <trkpt lat="48.853676" lon="2.346818" />
      <trkpt lat="48.854295" lon="2.34504" />
      <trkpt lat="48.854336" lon="2.34492" />
      <trkpt lat="48.854419" lon="2.345" />
      <trkpt lat="48.854451" lon="2.344927" />
      <trkpt lat="48.85446" lon="2.344903" />
      <trkpt lat="48.854478" lon="2.34486" />
      <trkpt lat="48.85462" lon="2.345007" />
      <trkpt lat="48.854478" lon="2.34486" />
      <trkpt lat="48.85446" lon="2.344903" />
      <trkpt lat="48.854451" lon="2.344927" />
      <trkpt lat="48.854419" lon="2.345" />
      <trkpt lat="48.854383" lon="2.345082" />
      <trkpt lat="48.854371" lon="2.345111" />
      <trkpt lat="48.854355" lon="2.345098" />
      <trkpt lat="48.854295" lon="2.34504" />
      <trkpt lat="48.853676" lon="2.346818" />
      <trkpt lat="48.853615" lon="2.346994" />
      <trkpt lat="48.853592" lon="2.347114" />
      <trkpt lat="48.853476" lon="2.347049" />
      <trkpt lat="48.853456" lon="2.34713" />
      <trkpt lat="48.853447" lon="2.347168" />
      <trkpt lat="48.853501" lon="2.3472" />
      <trkpt lat="48.853515" lon="2.347218" />
      <trkpt lat="48.853519" lon="2.347242" />
      <trkpt lat="48.853504" lon="2.347421" />
      <trkpt lat="48.853466" lon="2.347546" />
      <trkpt lat="48.85337" lon="2.347718" />
      <trkpt lat="48.853246" lon="2.348114" />
      <trkpt lat="48.853034" lon="2.348763" />
      <trkpt lat="48.85306" lon="2.348782" />
      <trkpt lat="48.85315" lon="2.348847" />
    </trkseg>
  </trk>
  <trk>
    <name>parvis_to_bus47 — V1 a pie: Notre-Dame → poste Cité–Parvis, sentido sur</name>
    <desc>0.292 km; transit_connector; dataset parvis_to_bus47. </desc>
    <trkseg>
      <trkpt lat="48.85315" lon="2.348847" />
      <trkpt lat="48.853204" lon="2.348886" />
      <trkpt lat="48.853457" lon="2.349069" />
      <trkpt lat="48.853485" lon="2.34898" />
      <trkpt lat="48.853842" lon="2.347849" />
      <trkpt lat="48.853849" lon="2.347823" />
      <trkpt lat="48.85383" lon="2.34778" />
      <trkpt lat="48.853835" lon="2.347764" />
      <trkpt lat="48.853851" lon="2.347713" />
      <trkpt lat="48.853866" lon="2.347667" />
      <trkpt lat="48.853892" lon="2.347591" />
      <trkpt lat="48.853907" lon="2.347558" />
      <trkpt lat="48.853978" lon="2.347471" />
      <trkpt lat="48.854009" lon="2.347481" />
      <trkpt lat="48.854038" lon="2.347489" />
      <trkpt lat="48.854062" lon="2.347497" />
      <trkpt lat="48.854109" lon="2.347515" />
      <trkpt lat="48.854174" lon="2.347548" />
      <trkpt lat="48.854205" lon="2.347564" />
      <trkpt lat="48.85421" lon="2.347545" />
      <trkpt lat="48.854227" lon="2.347479" />
      <trkpt lat="48.854243" lon="2.347413" />
      <trkpt lat="48.85425" lon="2.347385" />
      <trkpt lat="48.854657" lon="2.34762" />
      <trkpt lat="48.854734" lon="2.347643" />
      <trkpt lat="48.85493" lon="2.34776" />
    </trkseg>
  </trk>
  <trk>
    <name>bus47_to_medard — V1 a pie: bajada Censier → frente y cabecera</name>
    <desc>0.284 km; transit_connector; dataset bus47_to_medard. </desc>
    <trkseg>
      <trkpt lat="48.840663" lon="2.351611" />
      <trkpt lat="48.840641" lon="2.351585" />
      <trkpt lat="48.840578" lon="2.351546" />
      <trkpt lat="48.840533" lon="2.351566" />
      <trkpt lat="48.840505" lon="2.351564" />
      <trkpt lat="48.840513" lon="2.351494" />
      <trkpt lat="48.840509" lon="2.35146" />
      <trkpt lat="48.840501" lon="2.35143" />
      <trkpt lat="48.840396" lon="2.351142" />
      <trkpt lat="48.840359" lon="2.351042" />
      <trkpt lat="48.840319" lon="2.350935" />
      <trkpt lat="48.840304" lon="2.350889" />
      <trkpt lat="48.840251" lon="2.350678" />
      <trkpt lat="48.840212" lon="2.350523" />
      <trkpt lat="48.840205" lon="2.35049" />
      <trkpt lat="48.840196" lon="2.350453" />
      <trkpt lat="48.840114" lon="2.350104" />
      <trkpt lat="48.84008" lon="2.349823" />
      <trkpt lat="48.840064" lon="2.349846" />
      <trkpt lat="48.840103" lon="2.350118" />
      <trkpt lat="48.840191" lon="2.350497" />
      <trkpt lat="48.840236" lon="2.350686" />
      <trkpt lat="48.840265" lon="2.35083" />
      <trkpt lat="48.840215" lon="2.350868" />
      <trkpt lat="48.839933" lon="2.351075" />
      <trkpt lat="48.839886" lon="2.3511" />
      <trkpt lat="48.839886" lon="2.351128" />
      <trkpt lat="48.839894" lon="2.351143" />
    </trkseg>
  </trk>
  <trk>
    <name>parvis_to_cite_metro_surface — V0 salida: Notre-Dame → Place Louis-Lépine, exterior</name>
    <desc>0.528 km; exit; dataset parvis_to_cite_metro_surface. Rue d’Arcole → quai de la Corse → paso rue de la Cité → allée Célestin-Hennion → Place Louis-Lépine. Termina antes de las escaleras; acceso metro a unos 20–30 m, fuera del track.</desc>
    <trkseg>
      <trkpt lat="48.85315" lon="2.348847" />
      <trkpt lat="48.853204" lon="2.348886" />
      <trkpt lat="48.853457" lon="2.349069" />
      <trkpt lat="48.853485" lon="2.34898" />
      <trkpt lat="48.853842" lon="2.347849" />
      <trkpt lat="48.853849" lon="2.347823" />
      <trkpt lat="48.85383" lon="2.34778" />
      <trkpt lat="48.853835" lon="2.347764" />
      <trkpt lat="48.853851" lon="2.347713" />
      <trkpt lat="48.853866" lon="2.347667" />
      <trkpt lat="48.853892" lon="2.347591" />
      <trkpt lat="48.853907" lon="2.347558" />
      <trkpt lat="48.853978" lon="2.347471" />
      <trkpt lat="48.854009" lon="2.347481" />
      <trkpt lat="48.854038" lon="2.347489" />
      <trkpt lat="48.854062" lon="2.347497" />
      <trkpt lat="48.854109" lon="2.347515" />
      <trkpt lat="48.854174" lon="2.347548" />
      <trkpt lat="48.854205" lon="2.347564" />
      <trkpt lat="48.85426" lon="2.347597" />
      <trkpt lat="48.854342" lon="2.347647" />
      <trkpt lat="48.85444" lon="2.347731" />
      <trkpt lat="48.854481" lon="2.347755" />
      <trkpt lat="48.855134" lon="2.348132" />
      <trkpt lat="48.855574" lon="2.348387" />
      <trkpt lat="48.85558" lon="2.348362" />
      <trkpt lat="48.855596" lon="2.348296" />
      <trkpt lat="48.85562" lon="2.348207" />
      <trkpt lat="48.855629" lon="2.348175" />
      <trkpt lat="48.855644" lon="2.348176" />
      <trkpt lat="48.855664" lon="2.348106" />
      <trkpt lat="48.855695" lon="2.347983" />
      <trkpt lat="48.8557" lon="2.347964" />
      <trkpt lat="48.855705" lon="2.347944" />
      <trkpt lat="48.855735" lon="2.347833" />
      <trkpt lat="48.855758" lon="2.347761" />
      <trkpt lat="48.855772" lon="2.347729" />
      <trkpt lat="48.855777" lon="2.347713" />
      <trkpt lat="48.855782" lon="2.347692" />
      <trkpt lat="48.855795" lon="2.347663" />
      <trkpt lat="48.855822" lon="2.347563" />
      <trkpt lat="48.855794" lon="2.347546" />
      <trkpt lat="48.855668" lon="2.347468" />
      <trkpt lat="48.855588" lon="2.347417" />
      <trkpt lat="48.855573" lon="2.347407" />
      <trkpt lat="48.855279" lon="2.347225" />
      <trkpt lat="48.855246" lon="2.347206" />
      <trkpt lat="48.855255" lon="2.347174" />
      <trkpt lat="48.855267" lon="2.347129" />
      <trkpt lat="48.855231" lon="2.347106" />
      <trkpt lat="48.855203" lon="2.347088" />
      <trkpt lat="48.855076" lon="2.346996" />
    </trkseg>
  </trk>
  <trk>
    <name>flamel_to_medard_without_parvis — V3 parcial: Flamel → Saint-Médard, sin parvis</name>
    <desc>3.792 km; variant; dataset flamel_to_medard_without_parvis. </desc>
    <trkseg>
      <trkpt lat="48.863604" lon="2.353132" />
      <trkpt lat="48.863548" lon="2.353389" />
      <trkpt lat="48.86339" lon="2.353958" />
      <trkpt lat="48.863248" lon="2.354471" />
      <trkpt lat="48.86323" lon="2.354536" />
      <trkpt lat="48.863227" lon="2.354551" />
      <trkpt lat="48.863164" lon="2.354514" />
      <trkpt lat="48.862887" lon="2.354367" />
      <trkpt lat="48.862792" lon="2.354313" />
      <trkpt lat="48.862722" lon="2.354278" />
      <trkpt lat="48.862648" lon="2.354237" />
      <trkpt lat="48.862025" lon="2.353908" />
      <trkpt lat="48.861785" lon="2.353781" />
      <trkpt lat="48.861762" lon="2.353769" />
      <trkpt lat="48.861612" lon="2.35369" />
      <trkpt lat="48.861453" lon="2.353606" />
      <trkpt lat="48.861277" lon="2.353513" />
      <trkpt lat="48.861228" lon="2.353487" />
      <trkpt lat="48.861166" lon="2.353453" />
      <trkpt lat="48.861134" lon="2.353436" />
      <trkpt lat="48.860879" lon="2.353274" />
      <trkpt lat="48.860749" lon="2.353203" />
      <trkpt lat="48.860611" lon="2.353171" />
      <trkpt lat="48.860413" lon="2.353054" />
      <trkpt lat="48.860287" lon="2.352985" />
      <trkpt lat="48.859938" lon="2.3528" />
      <trkpt lat="48.859881" lon="2.35276" />
      <trkpt lat="48.859823" lon="2.352705" />
      <trkpt lat="48.859636" lon="2.352592" />
      <trkpt lat="48.859592" lon="2.352564" />
      <trkpt lat="48.858769" lon="2.352136" />
      <trkpt lat="48.858698" lon="2.352099" />
      <trkpt lat="48.858408" lon="2.351939" />
      <trkpt lat="48.858352" lon="2.351908" />
      <trkpt lat="48.858296" lon="2.351879" />
      <trkpt lat="48.85765" lon="2.351537" />
      <trkpt lat="48.857616" lon="2.351519" />
      <trkpt lat="48.857592" lon="2.351506" />
      <trkpt lat="48.857551" lon="2.351475" />
      <trkpt lat="48.857534" lon="2.351417" />
      <trkpt lat="48.85745" lon="2.351423" />
      <trkpt lat="48.857428" lon="2.351411" />
      <trkpt lat="48.85741" lon="2.351401" />
      <trkpt lat="48.856931" lon="2.351128" />
      <trkpt lat="48.856946" lon="2.351008" />
      <trkpt lat="48.856906" lon="2.350988" />
      <trkpt lat="48.856846" lon="2.350945" />
      <trkpt lat="48.85678" lon="2.350907" />
      <trkpt lat="48.856767" lon="2.350894" />
      <trkpt lat="48.856743" lon="2.35087" />
      <trkpt lat="48.856711" lon="2.350909" />
      <trkpt lat="48.856705" lon="2.35091" />
      <trkpt lat="48.856481" lon="2.350801" />
      <trkpt lat="48.856468" lon="2.350793" />
      <trkpt lat="48.856456" lon="2.350787" />
      <trkpt lat="48.856234" lon="2.350663" />
      <trkpt lat="48.856211" lon="2.350634" />
      <trkpt lat="48.856183" lon="2.350593" />
      <trkpt lat="48.856171" lon="2.350589" />
      <trkpt lat="48.856114" lon="2.350566" />
      <trkpt lat="48.856046" lon="2.350539" />
      <trkpt lat="48.856019" lon="2.350521" />
      <trkpt lat="48.855969" lon="2.350651" />
      <trkpt lat="48.855942" lon="2.350678" />
      <trkpt lat="48.855881" lon="2.350707" />
      <trkpt lat="48.855859" lon="2.350717" />
      <trkpt lat="48.855836" lon="2.350711" />
      <trkpt lat="48.85517" lon="2.350231" />
      <trkpt lat="48.85516" lon="2.350223" />
      <trkpt lat="48.855155" lon="2.350212" />
      <trkpt lat="48.855141" lon="2.3502" />
      <trkpt lat="48.855103" lon="2.350169" />
      <trkpt lat="48.855068" lon="2.350142" />
      <trkpt lat="48.855059" lon="2.350135" />
      <trkpt lat="48.855016" lon="2.350112" />
      <trkpt lat="48.854367" lon="2.349634" />
      <trkpt lat="48.854356" lon="2.349668" />
      <trkpt lat="48.85434" lon="2.349719" />
      <trkpt lat="48.853633" lon="2.349207" />
      <trkpt lat="48.85434" lon="2.349719" />
      <trkpt lat="48.854384" lon="2.349752" />
      <trkpt lat="48.85499" lon="2.350199" />
      <trkpt lat="48.855005" lon="2.350147" />
      <trkpt lat="48.855016" lon="2.350112" />
      <trkpt lat="48.855059" lon="2.350135" />
      <trkpt lat="48.855069" lon="2.350142" />
      <trkpt lat="48.855059" lon="2.350135" />
      <trkpt lat="48.855227" lon="2.349639" />
      <trkpt lat="48.855442" lon="2.348908" />
      <trkpt lat="48.855573" lon="2.348415" />
      <trkpt lat="48.855574" lon="2.348387" />
      <trkpt lat="48.8553" lon="2.348228" />
      <trkpt lat="48.855134" lon="2.348132" />
      <trkpt lat="48.854481" lon="2.347755" />
      <trkpt lat="48.85444" lon="2.347731" />
      <trkpt lat="48.854342" lon="2.347647" />
      <trkpt lat="48.85426" lon="2.347597" />
      <trkpt lat="48.854205" lon="2.347564" />
      <trkpt lat="48.85421" lon="2.347545" />
      <trkpt lat="48.854227" lon="2.347479" />
      <trkpt lat="48.854157" lon="2.347439" />
      <trkpt lat="48.854137" lon="2.347427" />
      <trkpt lat="48.854069" lon="2.347387" />
      <trkpt lat="48.854014" lon="2.347355" />
      <trkpt lat="48.853982" lon="2.347335" />
      <trkpt lat="48.853715" lon="2.34718" />
      <trkpt lat="48.85367" lon="2.347155" />
      <trkpt lat="48.853592" lon="2.347114" />
      <trkpt lat="48.853476" lon="2.347049" />
      <trkpt lat="48.853187" lon="2.346885" />
      <trkpt lat="48.853164" lon="2.346873" />
      <trkpt lat="48.853143" lon="2.346861" />
      <trkpt lat="48.853114" lon="2.346836" />
      <trkpt lat="48.853073" lon="2.346801" />
      <trkpt lat="48.852981" lon="2.346744" />
      <trkpt lat="48.852834" lon="2.346656" />
      <trkpt lat="48.852763" lon="2.346615" />
      <trkpt lat="48.852742" lon="2.346602" />
      <trkpt lat="48.852735" lon="2.346631" />
      <trkpt lat="48.852726" lon="2.346665" />
      <trkpt lat="48.852724" lon="2.346672" />
      <trkpt lat="48.85272" lon="2.346691" />
      <trkpt lat="48.852716" lon="2.346705" />
      <trkpt lat="48.852211" lon="2.346419" />
      <trkpt lat="48.85219" lon="2.346408" />
      <trkpt lat="48.852175" lon="2.346399" />
      <trkpt lat="48.852143" lon="2.346383" />
      <trkpt lat="48.852118" lon="2.34637" />
      <trkpt lat="48.852114" lon="2.346367" />
      <trkpt lat="48.852104" lon="2.346405" />
      <trkpt lat="48.852079" lon="2.34651" />
      <trkpt lat="48.852032" lon="2.346604" />
      <trkpt lat="48.851783" lon="2.346776" />
      <trkpt lat="48.851729" lon="2.346828" />
      <trkpt lat="48.851636" lon="2.346943" />
      <trkpt lat="48.851537" lon="2.347091" />
      <trkpt lat="48.851512" lon="2.347108" />
      <trkpt lat="48.851498" lon="2.347108" />
      <trkpt lat="48.851504" lon="2.347123" />
      <trkpt lat="48.851518" lon="2.347161" />
      <trkpt lat="48.851531" lon="2.347196" />
      <trkpt lat="48.851536" lon="2.347209" />
      <trkpt lat="48.851539" lon="2.347224" />
      <trkpt lat="48.851551" lon="2.347247" />
      <trkpt lat="48.851724" lon="2.347556" />
      <trkpt lat="48.851713" lon="2.347564" />
      <trkpt lat="48.851643" lon="2.347601" />
      <trkpt lat="48.851685" lon="2.347694" />
      <trkpt lat="48.851595" lon="2.347764" />
      <trkpt lat="48.851344" lon="2.347956" />
      <trkpt lat="48.851315" lon="2.347981" />
      <trkpt lat="48.851054" lon="2.348191" />
      <trkpt lat="48.851042" lon="2.348199" />
      <trkpt lat="48.850846" lon="2.348342" />
      <trkpt lat="48.850736" lon="2.348396" />
      <trkpt lat="48.850482" lon="2.348602" />
      <trkpt lat="48.850462" lon="2.348618" />
      <trkpt lat="48.850371" lon="2.34869" />
      <trkpt lat="48.850271" lon="2.348773" />
      <trkpt lat="48.850184" lon="2.348844" />
      <trkpt lat="48.849986" lon="2.349005" />
      <trkpt lat="48.849961" lon="2.349106" />
      <trkpt lat="48.84993" lon="2.349234" />
      <trkpt lat="48.849794" lon="2.349179" />
      <trkpt lat="48.849775" lon="2.349179" />
      <trkpt lat="48.849717" lon="2.349225" />
      <trkpt lat="48.849668" lon="2.349266" />
      <trkpt lat="48.849615" lon="2.349311" />
      <trkpt lat="48.849409" lon="2.349475" />
      <trkpt lat="48.84911" lon="2.349708" />
      <trkpt lat="48.848933" lon="2.349835" />
      <trkpt lat="48.84878" lon="2.349949" />
      <trkpt lat="48.848553" lon="2.350126" />
      <trkpt lat="48.848365" lon="2.350271" />
      <trkpt lat="48.848326" lon="2.350302" />
      <trkpt lat="48.848078" lon="2.350505" />
      <trkpt lat="48.847854" lon="2.350679" />
      <trkpt lat="48.84781" lon="2.350713" />
      <trkpt lat="48.84713" lon="2.351239" />
      <trkpt lat="48.846974" lon="2.35136" />
      <trkpt lat="48.846755" lon="2.351523" />
      <trkpt lat="48.846713" lon="2.351554" />
      <trkpt lat="48.846604" lon="2.351635" />
      <trkpt lat="48.846396" lon="2.35172" />
      <trkpt lat="48.846332" lon="2.351744" />
      <trkpt lat="48.846278" lon="2.351765" />
      <trkpt lat="48.846229" lon="2.351781" />
      <trkpt lat="48.845972" lon="2.351876" />
      <trkpt lat="48.845117" lon="2.352187" />
      <trkpt lat="48.844585" lon="2.352371" />
      <trkpt lat="48.844476" lon="2.352408" />
      <trkpt lat="48.844157" lon="2.352362" />
      <trkpt lat="48.84392" lon="2.352336" />
      <trkpt lat="48.843869" lon="2.352325" />
      <trkpt lat="48.843793" lon="2.352317" />
      <trkpt lat="48.843715" lon="2.352305" />
      <trkpt lat="48.843668" lon="2.352298" />
      <trkpt lat="48.843635" lon="2.352293" />
      <trkpt lat="48.84324" lon="2.352227" />
      <trkpt lat="48.843176" lon="2.352217" />
      <trkpt lat="48.843004" lon="2.352189" />
      <trkpt lat="48.842875" lon="2.35217" />
      <trkpt lat="48.842781" lon="2.352153" />
      <trkpt lat="48.84269" lon="2.352137" />
      <trkpt lat="48.84261" lon="2.35212" />
      <trkpt lat="48.84217" lon="2.352053" />
      <trkpt lat="48.842092" lon="2.352041" />
      <trkpt lat="48.841763" lon="2.351993" />
      <trkpt lat="48.841717" lon="2.351986" />
      <trkpt lat="48.84166" lon="2.351979" />
      <trkpt lat="48.841577" lon="2.351967" />
      <trkpt lat="48.841527" lon="2.35196" />
      <trkpt lat="48.841014" lon="2.351882" />
      <trkpt lat="48.840969" lon="2.351875" />
      <trkpt lat="48.840835" lon="2.35186" />
      <trkpt lat="48.840766" lon="2.351847" />
      <trkpt lat="48.840721" lon="2.351826" />
      <trkpt lat="48.840698" lon="2.351816" />
      <trkpt lat="48.840591" lon="2.35177" />
      <trkpt lat="48.84047" lon="2.35171" />
      <trkpt lat="48.840505" lon="2.351564" />
      <trkpt lat="48.840513" lon="2.351494" />
      <trkpt lat="48.840509" lon="2.35146" />
      <trkpt lat="48.840501" lon="2.35143" />
      <trkpt lat="48.840396" lon="2.351142" />
      <trkpt lat="48.840359" lon="2.351042" />
      <trkpt lat="48.840319" lon="2.350935" />
      <trkpt lat="48.840304" lon="2.350889" />
      <trkpt lat="48.840251" lon="2.350678" />
      <trkpt lat="48.840212" lon="2.350523" />
      <trkpt lat="48.840205" lon="2.35049" />
      <trkpt lat="48.840196" lon="2.350453" />
      <trkpt lat="48.840114" lon="2.350104" />
      <trkpt lat="48.84008" lon="2.349823" />
      <trkpt lat="48.840064" lon="2.349846" />
      <trkpt lat="48.840103" lon="2.350118" />
      <trkpt lat="48.840191" lon="2.350497" />
      <trkpt lat="48.840236" lon="2.350686" />
      <trkpt lat="48.840265" lon="2.35083" />
      <trkpt lat="48.840215" lon="2.350868" />
      <trkpt lat="48.839933" lon="2.351075" />
      <trkpt lat="48.839886" lon="2.3511" />
      <trkpt lat="48.839886" lon="2.351128" />
      <trkpt lat="48.839894" lon="2.351143" />
    </trkseg>
  </trk>
  <trk>
    <name>V2_start_notre_dame — V2 parcial: Notre-Dame → Saint-Médard</name>
    <desc>1.793 km; variant; dataset 02_medieval_canonical. </desc>
    <trkseg>
      <trkpt lat="48.85315" lon="2.348847" />
      <trkpt lat="48.85306" lon="2.348782" />
      <trkpt lat="48.853034" lon="2.348763" />
      <trkpt lat="48.852768" lon="2.34857" />
      <trkpt lat="48.852744" lon="2.348553" />
      <trkpt lat="48.85266" lon="2.348487" />
      <trkpt lat="48.852532" lon="2.34839" />
      <trkpt lat="48.852446" lon="2.348333" />
      <trkpt lat="48.852439" lon="2.348326" />
      <trkpt lat="48.852422" lon="2.348311" />
      <trkpt lat="48.852413" lon="2.348302" />
      <trkpt lat="48.852404" lon="2.348292" />
      <trkpt lat="48.852391" lon="2.34828" />
      <trkpt lat="48.852349" lon="2.348238" />
      <trkpt lat="48.852273" lon="2.348192" />
      <trkpt lat="48.852154" lon="2.348122" />
      <trkpt lat="48.851945" lon="2.347972" />
      <trkpt lat="48.851899" lon="2.347936" />
      <trkpt lat="48.851782" lon="2.347831" />
      <trkpt lat="48.851729" lon="2.347766" />
      <trkpt lat="48.851685" lon="2.347694" />
      <trkpt lat="48.851595" lon="2.347764" />
      <trkpt lat="48.851344" lon="2.347956" />
      <trkpt lat="48.851315" lon="2.347981" />
      <trkpt lat="48.851054" lon="2.348191" />
      <trkpt lat="48.851042" lon="2.348199" />
      <trkpt lat="48.850846" lon="2.348342" />
      <trkpt lat="48.850736" lon="2.348396" />
      <trkpt lat="48.850482" lon="2.348602" />
      <trkpt lat="48.850462" lon="2.348618" />
      <trkpt lat="48.850371" lon="2.34869" />
      <trkpt lat="48.850271" lon="2.348773" />
      <trkpt lat="48.850184" lon="2.348844" />
      <trkpt lat="48.849986" lon="2.349005" />
      <trkpt lat="48.849961" lon="2.349106" />
      <trkpt lat="48.84993" lon="2.349234" />
      <trkpt lat="48.849794" lon="2.349179" />
      <trkpt lat="48.849775" lon="2.349179" />
      <trkpt lat="48.849717" lon="2.349225" />
      <trkpt lat="48.849668" lon="2.349266" />
      <trkpt lat="48.849615" lon="2.349311" />
      <trkpt lat="48.849409" lon="2.349475" />
      <trkpt lat="48.84911" lon="2.349708" />
      <trkpt lat="48.848933" lon="2.349835" />
      <trkpt lat="48.84878" lon="2.349949" />
      <trkpt lat="48.848553" lon="2.350126" />
      <trkpt lat="48.848365" lon="2.350271" />
      <trkpt lat="48.848326" lon="2.350302" />
      <trkpt lat="48.848078" lon="2.350505" />
      <trkpt lat="48.847854" lon="2.350679" />
      <trkpt lat="48.84781" lon="2.350713" />
      <trkpt lat="48.84713" lon="2.351239" />
      <trkpt lat="48.846974" lon="2.35136" />
      <trkpt lat="48.846755" lon="2.351523" />
      <trkpt lat="48.846713" lon="2.351554" />
      <trkpt lat="48.846604" lon="2.351635" />
      <trkpt lat="48.846396" lon="2.35172" />
      <trkpt lat="48.846332" lon="2.351744" />
      <trkpt lat="48.846278" lon="2.351765" />
      <trkpt lat="48.846229" lon="2.351781" />
      <trkpt lat="48.845972" lon="2.351876" />
      <trkpt lat="48.845117" lon="2.352187" />
      <trkpt lat="48.844585" lon="2.352371" />
      <trkpt lat="48.844476" lon="2.352408" />
      <trkpt lat="48.844157" lon="2.352362" />
      <trkpt lat="48.84392" lon="2.352336" />
      <trkpt lat="48.843869" lon="2.352325" />
      <trkpt lat="48.843793" lon="2.352317" />
      <trkpt lat="48.843715" lon="2.352305" />
      <trkpt lat="48.843668" lon="2.352298" />
      <trkpt lat="48.843635" lon="2.352293" />
      <trkpt lat="48.84324" lon="2.352227" />
      <trkpt lat="48.843176" lon="2.352217" />
      <trkpt lat="48.843004" lon="2.352189" />
      <trkpt lat="48.842875" lon="2.35217" />
      <trkpt lat="48.842781" lon="2.352153" />
      <trkpt lat="48.84269" lon="2.352137" />
      <trkpt lat="48.84261" lon="2.35212" />
      <trkpt lat="48.84217" lon="2.352053" />
      <trkpt lat="48.842092" lon="2.352041" />
      <trkpt lat="48.841763" lon="2.351993" />
      <trkpt lat="48.841717" lon="2.351986" />
      <trkpt lat="48.84166" lon="2.351979" />
      <trkpt lat="48.841577" lon="2.351967" />
      <trkpt lat="48.841527" lon="2.35196" />
      <trkpt lat="48.841014" lon="2.351882" />
      <trkpt lat="48.840969" lon="2.351875" />
      <trkpt lat="48.840835" lon="2.35186" />
      <trkpt lat="48.840766" lon="2.351847" />
      <trkpt lat="48.840721" lon="2.351826" />
      <trkpt lat="48.840698" lon="2.351816" />
      <trkpt lat="48.840591" lon="2.35177" />
      <trkpt lat="48.84047" lon="2.35171" />
      <trkpt lat="48.840505" lon="2.351564" />
      <trkpt lat="48.840513" lon="2.351494" />
      <trkpt lat="48.840509" lon="2.35146" />
      <trkpt lat="48.840501" lon="2.35143" />
      <trkpt lat="48.840396" lon="2.351142" />
      <trkpt lat="48.840359" lon="2.351042" />
      <trkpt lat="48.840319" lon="2.350935" />
      <trkpt lat="48.840304" lon="2.350889" />
      <trkpt lat="48.840251" lon="2.350678" />
      <trkpt lat="48.840212" lon="2.350523" />
      <trkpt lat="48.840205" lon="2.35049" />
      <trkpt lat="48.840196" lon="2.350453" />
      <trkpt lat="48.840114" lon="2.350104" />
      <trkpt lat="48.84008" lon="2.349823" />
      <trkpt lat="48.840064" lon="2.349846" />
      <trkpt lat="48.840103" lon="2.350118" />
      <trkpt lat="48.840191" lon="2.350497" />
      <trkpt lat="48.840236" lon="2.350686" />
      <trkpt lat="48.840265" lon="2.35083" />
      <trkpt lat="48.840215" lon="2.350868" />
      <trkpt lat="48.839933" lon="2.351075" />
      <trkpt lat="48.839886" lon="2.3511" />
      <trkpt lat="48.839886" lon="2.351128" />
      <trkpt lat="48.839894" lon="2.351143" />
    </trkseg>
  </trk>
  <trk>
    <name>V4_finish_front — V4: base con final en frente de Saint-Médard</name>
    <desc>3.009 km; variant; dataset 02_medieval_canonical. </desc>
    <trkseg>
      <trkpt lat="48.863604" lon="2.353132" />
      <trkpt lat="48.863548" lon="2.353389" />
      <trkpt lat="48.86339" lon="2.353958" />
      <trkpt lat="48.863248" lon="2.354471" />
      <trkpt lat="48.86323" lon="2.354536" />
      <trkpt lat="48.863227" lon="2.354551" />
      <trkpt lat="48.863164" lon="2.354514" />
      <trkpt lat="48.862887" lon="2.354367" />
      <trkpt lat="48.862792" lon="2.354313" />
      <trkpt lat="48.862722" lon="2.354278" />
      <trkpt lat="48.862648" lon="2.354237" />
      <trkpt lat="48.862025" lon="2.353908" />
      <trkpt lat="48.861785" lon="2.353781" />
      <trkpt lat="48.861762" lon="2.353769" />
      <trkpt lat="48.861612" lon="2.35369" />
      <trkpt lat="48.861453" lon="2.353606" />
      <trkpt lat="48.861277" lon="2.353513" />
      <trkpt lat="48.861228" lon="2.353487" />
      <trkpt lat="48.861166" lon="2.353453" />
      <trkpt lat="48.861134" lon="2.353436" />
      <trkpt lat="48.860879" lon="2.353274" />
      <trkpt lat="48.860749" lon="2.353203" />
      <trkpt lat="48.860611" lon="2.353171" />
      <trkpt lat="48.860413" lon="2.353054" />
      <trkpt lat="48.860287" lon="2.352985" />
      <trkpt lat="48.859938" lon="2.3528" />
      <trkpt lat="48.859881" lon="2.35276" />
      <trkpt lat="48.859823" lon="2.352705" />
      <trkpt lat="48.859636" lon="2.352592" />
      <trkpt lat="48.859592" lon="2.352564" />
      <trkpt lat="48.858769" lon="2.352136" />
      <trkpt lat="48.858698" lon="2.352099" />
      <trkpt lat="48.858408" lon="2.351939" />
      <trkpt lat="48.858352" lon="2.351908" />
      <trkpt lat="48.858296" lon="2.351879" />
      <trkpt lat="48.85765" lon="2.351537" />
      <trkpt lat="48.857616" lon="2.351519" />
      <trkpt lat="48.857592" lon="2.351506" />
      <trkpt lat="48.857551" lon="2.351475" />
      <trkpt lat="48.857534" lon="2.351417" />
      <trkpt lat="48.85745" lon="2.351423" />
      <trkpt lat="48.857428" lon="2.351411" />
      <trkpt lat="48.85741" lon="2.351401" />
      <trkpt lat="48.856931" lon="2.351128" />
      <trkpt lat="48.856946" lon="2.351008" />
      <trkpt lat="48.856906" lon="2.350988" />
      <trkpt lat="48.856846" lon="2.350945" />
      <trkpt lat="48.85678" lon="2.350907" />
      <trkpt lat="48.856767" lon="2.350894" />
      <trkpt lat="48.856743" lon="2.35087" />
      <trkpt lat="48.856711" lon="2.350909" />
      <trkpt lat="48.856705" lon="2.35091" />
      <trkpt lat="48.856481" lon="2.350801" />
      <trkpt lat="48.856468" lon="2.350793" />
      <trkpt lat="48.856456" lon="2.350787" />
      <trkpt lat="48.856234" lon="2.350663" />
      <trkpt lat="48.856211" lon="2.350634" />
      <trkpt lat="48.856183" lon="2.350593" />
      <trkpt lat="48.856171" lon="2.350589" />
      <trkpt lat="48.856114" lon="2.350566" />
      <trkpt lat="48.856046" lon="2.350539" />
      <trkpt lat="48.856019" lon="2.350521" />
      <trkpt lat="48.855969" lon="2.350651" />
      <trkpt lat="48.855942" lon="2.350678" />
      <trkpt lat="48.855881" lon="2.350707" />
      <trkpt lat="48.855859" lon="2.350717" />
      <trkpt lat="48.855836" lon="2.350711" />
      <trkpt lat="48.85517" lon="2.350231" />
      <trkpt lat="48.85516" lon="2.350223" />
      <trkpt lat="48.855155" lon="2.350212" />
      <trkpt lat="48.855141" lon="2.3502" />
      <trkpt lat="48.855103" lon="2.350169" />
      <trkpt lat="48.855068" lon="2.350142" />
      <trkpt lat="48.855059" lon="2.350135" />
      <trkpt lat="48.855016" lon="2.350112" />
      <trkpt lat="48.854367" lon="2.349634" />
      <trkpt lat="48.854356" lon="2.349668" />
      <trkpt lat="48.85434" lon="2.349719" />
      <trkpt lat="48.853633" lon="2.349207" />
      <trkpt lat="48.853612" lon="2.349194" />
      <trkpt lat="48.853562" lon="2.349154" />
      <trkpt lat="48.853554" lon="2.349148" />
      <trkpt lat="48.853457" lon="2.349069" />
      <trkpt lat="48.853204" lon="2.348886" />
      <trkpt lat="48.85315" lon="2.348847" />
      <trkpt lat="48.85306" lon="2.348782" />
      <trkpt lat="48.853034" lon="2.348763" />
      <trkpt lat="48.852768" lon="2.34857" />
      <trkpt lat="48.852744" lon="2.348553" />
      <trkpt lat="48.85266" lon="2.348487" />
      <trkpt lat="48.852532" lon="2.34839" />
      <trkpt lat="48.852446" lon="2.348333" />
      <trkpt lat="48.852439" lon="2.348326" />
      <trkpt lat="48.852422" lon="2.348311" />
      <trkpt lat="48.852413" lon="2.348302" />
      <trkpt lat="48.852404" lon="2.348292" />
      <trkpt lat="48.852391" lon="2.34828" />
      <trkpt lat="48.852349" lon="2.348238" />
      <trkpt lat="48.852273" lon="2.348192" />
      <trkpt lat="48.852154" lon="2.348122" />
      <trkpt lat="48.851945" lon="2.347972" />
      <trkpt lat="48.851899" lon="2.347936" />
      <trkpt lat="48.851782" lon="2.347831" />
      <trkpt lat="48.851729" lon="2.347766" />
      <trkpt lat="48.851685" lon="2.347694" />
      <trkpt lat="48.851595" lon="2.347764" />
      <trkpt lat="48.851344" lon="2.347956" />
      <trkpt lat="48.851315" lon="2.347981" />
      <trkpt lat="48.851054" lon="2.348191" />
      <trkpt lat="48.851042" lon="2.348199" />
      <trkpt lat="48.850846" lon="2.348342" />
      <trkpt lat="48.850736" lon="2.348396" />
      <trkpt lat="48.850482" lon="2.348602" />
      <trkpt lat="48.850462" lon="2.348618" />
      <trkpt lat="48.850371" lon="2.34869" />
      <trkpt lat="48.850271" lon="2.348773" />
      <trkpt lat="48.850184" lon="2.348844" />
      <trkpt lat="48.849986" lon="2.349005" />
      <trkpt lat="48.849961" lon="2.349106" />
      <trkpt lat="48.84993" lon="2.349234" />
      <trkpt lat="48.849794" lon="2.349179" />
      <trkpt lat="48.849775" lon="2.349179" />
      <trkpt lat="48.849717" lon="2.349225" />
      <trkpt lat="48.849668" lon="2.349266" />
      <trkpt lat="48.849615" lon="2.349311" />
      <trkpt lat="48.849409" lon="2.349475" />
      <trkpt lat="48.84911" lon="2.349708" />
      <trkpt lat="48.848933" lon="2.349835" />
      <trkpt lat="48.84878" lon="2.349949" />
      <trkpt lat="48.848553" lon="2.350126" />
      <trkpt lat="48.848365" lon="2.350271" />
      <trkpt lat="48.848326" lon="2.350302" />
      <trkpt lat="48.848078" lon="2.350505" />
      <trkpt lat="48.847854" lon="2.350679" />
      <trkpt lat="48.84781" lon="2.350713" />
      <trkpt lat="48.84713" lon="2.351239" />
      <trkpt lat="48.846974" lon="2.35136" />
      <trkpt lat="48.846755" lon="2.351523" />
      <trkpt lat="48.846713" lon="2.351554" />
      <trkpt lat="48.846604" lon="2.351635" />
      <trkpt lat="48.846396" lon="2.35172" />
      <trkpt lat="48.846332" lon="2.351744" />
      <trkpt lat="48.846278" lon="2.351765" />
      <trkpt lat="48.846229" lon="2.351781" />
      <trkpt lat="48.845972" lon="2.351876" />
      <trkpt lat="48.845117" lon="2.352187" />
      <trkpt lat="48.844585" lon="2.352371" />
      <trkpt lat="48.844476" lon="2.352408" />
      <trkpt lat="48.844157" lon="2.352362" />
      <trkpt lat="48.84392" lon="2.352336" />
      <trkpt lat="48.843869" lon="2.352325" />
      <trkpt lat="48.843793" lon="2.352317" />
      <trkpt lat="48.843715" lon="2.352305" />
      <trkpt lat="48.843668" lon="2.352298" />
      <trkpt lat="48.843635" lon="2.352293" />
      <trkpt lat="48.84324" lon="2.352227" />
      <trkpt lat="48.843176" lon="2.352217" />
      <trkpt lat="48.843004" lon="2.352189" />
      <trkpt lat="48.842875" lon="2.35217" />
      <trkpt lat="48.842781" lon="2.352153" />
      <trkpt lat="48.84269" lon="2.352137" />
      <trkpt lat="48.84261" lon="2.35212" />
      <trkpt lat="48.84217" lon="2.352053" />
      <trkpt lat="48.842092" lon="2.352041" />
      <trkpt lat="48.841763" lon="2.351993" />
      <trkpt lat="48.841717" lon="2.351986" />
      <trkpt lat="48.84166" lon="2.351979" />
      <trkpt lat="48.841577" lon="2.351967" />
      <trkpt lat="48.841527" lon="2.35196" />
      <trkpt lat="48.841014" lon="2.351882" />
      <trkpt lat="48.840969" lon="2.351875" />
      <trkpt lat="48.840835" lon="2.35186" />
      <trkpt lat="48.840766" lon="2.351847" />
      <trkpt lat="48.840721" lon="2.351826" />
      <trkpt lat="48.840698" lon="2.351816" />
      <trkpt lat="48.840591" lon="2.35177" />
      <trkpt lat="48.84047" lon="2.35171" />
      <trkpt lat="48.840505" lon="2.351564" />
      <trkpt lat="48.840513" lon="2.351494" />
      <trkpt lat="48.840509" lon="2.35146" />
      <trkpt lat="48.840501" lon="2.35143" />
      <trkpt lat="48.840396" lon="2.351142" />
      <trkpt lat="48.840359" lon="2.351042" />
      <trkpt lat="48.840319" lon="2.350935" />
      <trkpt lat="48.840304" lon="2.350889" />
      <trkpt lat="48.840251" lon="2.350678" />
      <trkpt lat="48.840212" lon="2.350523" />
      <trkpt lat="48.840205" lon="2.35049" />
      <trkpt lat="48.840196" lon="2.350453" />
      <trkpt lat="48.840114" lon="2.350104" />
      <trkpt lat="48.84008" lon="2.349823" />
    </trkseg>
  </trk>
  <trk>
    <name>V0_finish_notre_dame — V0 parcial: Flamel → Notre-Dame, sin desenlace Saint-Médard</name>
    <desc>1.343 km; variant; dataset 02_medieval_canonical. </desc>
    <trkseg>
      <trkpt lat="48.863604" lon="2.353132" />
      <trkpt lat="48.863548" lon="2.353389" />
      <trkpt lat="48.86339" lon="2.353958" />
      <trkpt lat="48.863248" lon="2.354471" />
      <trkpt lat="48.86323" lon="2.354536" />
      <trkpt lat="48.863227" lon="2.354551" />
      <trkpt lat="48.863164" lon="2.354514" />
      <trkpt lat="48.862887" lon="2.354367" />
      <trkpt lat="48.862792" lon="2.354313" />
      <trkpt lat="48.862722" lon="2.354278" />
      <trkpt lat="48.862648" lon="2.354237" />
      <trkpt lat="48.862025" lon="2.353908" />
      <trkpt lat="48.861785" lon="2.353781" />
      <trkpt lat="48.861762" lon="2.353769" />
      <trkpt lat="48.861612" lon="2.35369" />
      <trkpt lat="48.861453" lon="2.353606" />
      <trkpt lat="48.861277" lon="2.353513" />
      <trkpt lat="48.861228" lon="2.353487" />
      <trkpt lat="48.861166" lon="2.353453" />
      <trkpt lat="48.861134" lon="2.353436" />
      <trkpt lat="48.860879" lon="2.353274" />
      <trkpt lat="48.860749" lon="2.353203" />
      <trkpt lat="48.860611" lon="2.353171" />
      <trkpt lat="48.860413" lon="2.353054" />
      <trkpt lat="48.860287" lon="2.352985" />
      <trkpt lat="48.859938" lon="2.3528" />
      <trkpt lat="48.859881" lon="2.35276" />
      <trkpt lat="48.859823" lon="2.352705" />
      <trkpt lat="48.859636" lon="2.352592" />
      <trkpt lat="48.859592" lon="2.352564" />
      <trkpt lat="48.858769" lon="2.352136" />
      <trkpt lat="48.858698" lon="2.352099" />
      <trkpt lat="48.858408" lon="2.351939" />
      <trkpt lat="48.858352" lon="2.351908" />
      <trkpt lat="48.858296" lon="2.351879" />
      <trkpt lat="48.85765" lon="2.351537" />
      <trkpt lat="48.857616" lon="2.351519" />
      <trkpt lat="48.857592" lon="2.351506" />
      <trkpt lat="48.857551" lon="2.351475" />
      <trkpt lat="48.857534" lon="2.351417" />
      <trkpt lat="48.85745" lon="2.351423" />
      <trkpt lat="48.857428" lon="2.351411" />
      <trkpt lat="48.85741" lon="2.351401" />
      <trkpt lat="48.856931" lon="2.351128" />
      <trkpt lat="48.856946" lon="2.351008" />
      <trkpt lat="48.856906" lon="2.350988" />
      <trkpt lat="48.856846" lon="2.350945" />
      <trkpt lat="48.85678" lon="2.350907" />
      <trkpt lat="48.856767" lon="2.350894" />
      <trkpt lat="48.856743" lon="2.35087" />
      <trkpt lat="48.856711" lon="2.350909" />
      <trkpt lat="48.856705" lon="2.35091" />
      <trkpt lat="48.856481" lon="2.350801" />
      <trkpt lat="48.856468" lon="2.350793" />
      <trkpt lat="48.856456" lon="2.350787" />
      <trkpt lat="48.856234" lon="2.350663" />
      <trkpt lat="48.856211" lon="2.350634" />
      <trkpt lat="48.856183" lon="2.350593" />
      <trkpt lat="48.856171" lon="2.350589" />
      <trkpt lat="48.856114" lon="2.350566" />
      <trkpt lat="48.856046" lon="2.350539" />
      <trkpt lat="48.856019" lon="2.350521" />
      <trkpt lat="48.855969" lon="2.350651" />
      <trkpt lat="48.855942" lon="2.350678" />
      <trkpt lat="48.855881" lon="2.350707" />
      <trkpt lat="48.855859" lon="2.350717" />
      <trkpt lat="48.855836" lon="2.350711" />
      <trkpt lat="48.85517" lon="2.350231" />
      <trkpt lat="48.85516" lon="2.350223" />
      <trkpt lat="48.855155" lon="2.350212" />
      <trkpt lat="48.855141" lon="2.3502" />
      <trkpt lat="48.855103" lon="2.350169" />
      <trkpt lat="48.855068" lon="2.350142" />
      <trkpt lat="48.855059" lon="2.350135" />
      <trkpt lat="48.855016" lon="2.350112" />
      <trkpt lat="48.854367" lon="2.349634" />
      <trkpt lat="48.854356" lon="2.349668" />
      <trkpt lat="48.85434" lon="2.349719" />
      <trkpt lat="48.853633" lon="2.349207" />
      <trkpt lat="48.853612" lon="2.349194" />
      <trkpt lat="48.853562" lon="2.349154" />
      <trkpt lat="48.853554" lon="2.349148" />
      <trkpt lat="48.853457" lon="2.349069" />
      <trkpt lat="48.853204" lon="2.348886" />
      <trkpt lat="48.85315" lon="2.348847" />
    </trkseg>
  </trk>
</gpx>