{
  "type": "FeatureCollection",
  "attribution": "Ville de Paris plans; OpenStreetMap contributors, ODbL 1.0",
  "features": [
    {"type":"Feature","properties":{"route_id":"03","point_id":"main_gate","label":"Porte principale","role":"entry","status":"DONE","route_version":"03-v10-20261005"},"geometry":{"type":"Point","coordinates":[2.389222,48.859969]}},
    {"type":"Feature","properties":{"route_id":"03","point_id":"robertson","label":"Robertson, division 8","role":"story","status":"DONE","route_version":"03-v10-20261005"},"geometry":{"type":"Point","coordinates":[2.390947,48.859933]}},
    {"type":"Feature","properties":{"route_id":"03","point_id":"kardec","label":"Allan Kardec, division 44","role":"story","status":"DONE","route_version":"03-v10-20261005"},"geometry":{"type":"Point","coordinates":[2.39435,48.86232]}},
    {"type":"Feature","properties":{"route_id":"03","point_id":"victor_noir","label":"Victor Noir, division 92","role":"story","status":"DONE","route_version":"03-v10-20261005"},"geometry":{"type":"Point","coordinates":[2.396543,48.860819]}},
    {"type":"Feature","properties":{"route_id":"03","point_id":"gambetta_gate","label":"Porte Gambetta","role":"exit","status":"DONE","route_version":"03-v10-20261005"},"geometry":{"type":"Point","coordinates":[2.397162,48.863384]}},
    {"type":"Feature","properties":{"route_id":"03","section":"core_decision_line","distance_km":1.086,"real_walking_planning_band_km":[1.3,1.8],"source":"Selected against Ville de Paris plan and open mapping; geodesic line, not network routing","field_verified":false,"status":"DONE","route_version":"03-v10-20261005","warning":"Stay on visible paths; straight segments never authorize crossing graves."},"geometry":{"type":"LineString","coordinates":[[2.389222,48.859969],[2.38955,48.8601],[2.39,48.86004],[2.390947,48.859933],[2.3912,48.86045],[2.39155,48.86095],[2.3919,48.86135],[2.3925,48.8617],[2.3931,48.86195],[2.39375,48.86215],[2.39435,48.86232],[2.3948,48.86235],[2.3953,48.86225],[2.39565,48.86185],[2.396,48.8614],[2.39635,48.861],[2.396543,48.860819],[2.397,48.8609],[2.39725,48.86135],[2.39735,48.862],[2.3973,48.86265],[2.397162,48.863384]]}}
  ]
}
