<?xml version='1.0' encoding='utf-8'?>
<gpx xmlns="http://www.topografix.com/GPX/1/1" version="1.1" creator="Cruce — Paris route 05"><trk><name>05_base_Republique_Pantheon_Senat_Assemblee</name><desc>05-v10-20261005; 6.244 km Valhalla pedestrian; base; no field inspection</desc><trkseg><trkpt lat="48.867328" lon="2.363979" /><trkpt lat="48.867262" lon="2.363900" /><trkpt lat="48.867218" lon="2.363835" /><trkpt lat="48.867138" lon="2.363722" /><trkpt lat="48.867132" lon="2.363714" /><trkpt lat="48.867116" lon="2.363742" /><trkpt lat="48.866770" lon="2.364351" /><trkpt lat="48.866596" lon="2.364691" /><trkpt lat="48.866530" lon="2.364809" /><trkpt lat="48.866401" lon="2.364771" /><trkpt lat="48.866374" lon="2.364774" /><trkpt lat="48.866366" lon="2.364775" /><trkpt lat="48.866341" lon="2.364787" /><trkpt lat="48.866314" lon="2.364800" /><trkpt lat="48.866123" lon="2.364912" /><trkpt lat="48.865981" lon="2.364992" /><trkpt lat="48.865865" lon="2.365060" /><trkpt lat="48.865497" lon="2.365293" /><trkpt lat="48.865370" lon="2.365377" /><trkpt lat="48.865349" lon="2.365289" /><trkpt lat="48.865326" lon="2.365194" /><trkpt lat="48.865240" lon="2.365245" /><trkpt lat="48.865231" lon="2.365251" /><trkpt lat="48.865200" lon="2.365278" /><trkpt lat="48.865169" lon="2.365308" /><trkpt lat="48.865156" lon="2.365317" /><trkpt lat="48.865098" lon="2.365206" /><trkpt lat="48.864758" lon="2.364816" /><trkpt lat="48.864570" lon="2.364809" /><trkpt lat="48.863827" lon="2.364780" /><trkpt lat="48.863817" lon="2.364794" /><trkpt lat="48.863799" lon="2.364782" /><trkpt lat="48.863723" lon="2.364782" /><trkpt lat="48.863680" lon="2.364782" /><trkpt lat="48.863673" lon="2.364784" /><trkpt lat="48.863666" lon="2.364775" /><trkpt lat="48.863651" lon="2.364770" /><trkpt lat="48.863475" lon="2.364763" /><trkpt lat="48.862791" lon="2.364733" /><trkpt lat="48.862790" lon="2.364716" /><trkpt lat="48.862787" lon="2.364646" /><trkpt lat="48.862785" lon="2.364585" /><trkpt lat="48.862784" lon="2.364567" /><trkpt lat="48.862772" lon="2.364562" /><trkpt lat="48.862716" lon="2.364456" /><trkpt lat="48.862714" lon="2.364422" /><trkpt lat="48.862706" lon="2.364409" /><trkpt lat="48.862674" lon="2.364353" /><trkpt lat="48.862658" lon="2.364324" /><trkpt lat="48.862654" lon="2.364317" /><trkpt lat="48.862634" lon="2.364313" /><trkpt lat="48.862346" lon="2.363771" /><trkpt lat="48.862367" lon="2.363707" /><trkpt lat="48.862352" lon="2.363678" /><trkpt lat="48.862344" lon="2.363665" /><trkpt lat="48.862331" lon="2.363642" /><trkpt lat="48.862304" lon="2.363594" /><trkpt lat="48.862285" lon="2.363562" /><trkpt lat="48.862269" lon="2.363597" /><trkpt lat="48.862219" lon="2.363567" /><trkpt lat="48.862044" lon="2.363445" /><trkpt lat="48.861904" lon="2.363364" /><trkpt lat="48.861597" lon="2.363151" /><trkpt lat="48.861574" lon="2.363117" /><trkpt lat="48.861572" lon="2.363103" /><trkpt lat="48.861565" lon="2.363102" /><trkpt lat="48.861532" lon="2.363096" /><trkpt lat="48.861508" lon="2.363092" /><trkpt lat="48.861503" lon="2.363091" /><trkpt lat="48.861498" lon="2.363116" /><trkpt lat="48.861487" lon="2.363122" /><trkpt lat="48.861272" lon="2.363103" /><trkpt lat="48.861263" lon="2.363094" /><trkpt lat="48.861242" lon="2.363068" /><trkpt lat="48.861035" lon="2.362667" /><trkpt lat="48.860578" lon="2.361808" /><trkpt lat="48.860577" lon="2.361785" /><trkpt lat="48.860573" lon="2.361780" /><trkpt lat="48.860558" lon="2.361750" /><trkpt lat="48.860545" lon="2.361727" /><trkpt lat="48.860541" lon="2.361719" /><trkpt lat="48.860532" lon="2.361717" /><trkpt lat="48.860404" lon="2.361493" /><trkpt lat="48.860080" lon="2.360913" /><trkpt lat="48.860023" lon="2.360808" /><trkpt lat="48.860045" lon="2.360768" /><trkpt lat="48.860001" lon="2.360685" /><trkpt lat="48.859984" lon="2.360651" /><trkpt lat="48.859969" lon="2.360623" /><trkpt lat="48.859957" lon="2.360600" /><trkpt lat="48.859929" lon="2.360644" /><trkpt lat="48.859510" lon="2.359956" /><trkpt lat="48.859501" lon="2.359943" /><trkpt lat="48.859300" lon="2.359649" /><trkpt lat="48.858774" lon="2.358863" /><trkpt lat="48.858739" lon="2.358798" /><trkpt lat="48.858735" lon="2.358803" /><trkpt lat="48.858718" lon="2.358828" /><trkpt lat="48.858704" lon="2.358849" /><trkpt lat="48.858701" lon="2.358854" /><trkpt lat="48.858672" lon="2.358866" /><trkpt lat="48.858660" lon="2.358851" /><trkpt lat="48.858643" lon="2.358829" /><trkpt lat="48.858626" lon="2.358807" /><trkpt lat="48.858614" lon="2.358789" /><trkpt lat="48.858602" lon="2.358740" /><trkpt lat="48.858418" lon="2.358568" /><trkpt lat="48.858411" lon="2.358557" /><trkpt lat="48.858397" lon="2.358537" /><trkpt lat="48.858378" lon="2.358507" /><trkpt lat="48.858376" lon="2.358503" /><trkpt lat="48.858362" lon="2.358474" /><trkpt lat="48.858210" lon="2.358244" /><trkpt lat="48.858189" lon="2.358222" /><trkpt lat="48.858185" lon="2.358218" /><trkpt lat="48.858163" lon="2.358195" /><trkpt lat="48.858144" lon="2.358174" /><trkpt lat="48.858140" lon="2.358172" /><trkpt lat="48.858136" lon="2.358157" /><trkpt lat="48.858129" lon="2.358131" /><trkpt lat="48.857938" lon="2.357945" /><trkpt lat="48.857902" lon="2.357910" /><trkpt lat="48.857886" lon="2.357896" /><trkpt lat="48.857863" lon="2.357876" /><trkpt lat="48.857673" lon="2.357718" /><trkpt lat="48.857529" lon="2.357598" /><trkpt lat="48.857377" lon="2.357470" /><trkpt lat="48.857330" lon="2.357435" /><trkpt lat="48.857315" lon="2.357426" /><trkpt lat="48.857294" lon="2.357429" /><trkpt lat="48.857284" lon="2.357421" /><trkpt lat="48.857253" lon="2.357396" /><trkpt lat="48.857232" lon="2.357379" /><trkpt lat="48.857217" lon="2.357367" /><trkpt lat="48.857201" lon="2.357329" /><trkpt lat="48.856894" lon="2.357069" /><trkpt lat="48.856817" lon="2.357006" /><trkpt lat="48.856700" lon="2.356931" /><trkpt lat="48.856705" lon="2.356914" /><trkpt lat="48.856712" lon="2.356880" /><trkpt lat="48.856717" lon="2.356855" /><trkpt lat="48.856720" lon="2.356841" /><trkpt lat="48.856693" lon="2.356818" /><trkpt lat="48.856689" lon="2.356784" /><trkpt lat="48.856670" lon="2.356770" /><trkpt lat="48.856652" lon="2.356758" /><trkpt lat="48.856619" lon="2.356736" /><trkpt lat="48.856618" lon="2.356735" /><trkpt lat="48.856607" lon="2.356729" /><trkpt lat="48.856602" lon="2.356734" /><trkpt lat="48.856572" lon="2.356735" /><trkpt lat="48.856380" lon="2.356594" /><trkpt lat="48.856380" lon="2.356545" /><trkpt lat="48.856393" lon="2.356489" /><trkpt lat="48.856373" lon="2.356478" /><trkpt lat="48.856352" lon="2.356469" /><trkpt lat="48.856316" lon="2.356449" /><trkpt lat="48.856293" lon="2.356436" /><trkpt lat="48.856271" lon="2.356424" /><trkpt lat="48.856251" lon="2.356415" /><trkpt lat="48.856230" lon="2.356459" /><trkpt lat="48.856173" lon="2.356462" /><trkpt lat="48.855887" lon="2.356320" /><trkpt lat="48.855888" lon="2.356310" /><trkpt lat="48.855875" lon="2.356272" /><trkpt lat="48.855865" lon="2.356265" /><trkpt lat="48.855843" lon="2.356248" /><trkpt lat="48.855817" lon="2.356227" /><trkpt lat="48.855809" lon="2.356221" /><trkpt lat="48.855778" lon="2.356236" /><trkpt lat="48.855605" lon="2.356069" /><trkpt lat="48.855312" lon="2.355783" /><trkpt lat="48.855270" lon="2.355741" /><trkpt lat="48.855247" lon="2.355719" /><trkpt lat="48.854855" lon="2.355327" /><trkpt lat="48.854679" lon="2.355153" /><trkpt lat="48.854670" lon="2.355137" /><trkpt lat="48.854660" lon="2.355114" /><trkpt lat="48.854637" lon="2.355091" /><trkpt lat="48.854617" lon="2.355071" /><trkpt lat="48.854582" lon="2.355038" /><trkpt lat="48.854502" lon="2.354974" /><trkpt lat="48.854527" lon="2.354886" /><trkpt lat="48.854510" lon="2.354872" /><trkpt lat="48.854500" lon="2.354863" /><trkpt lat="48.854493" lon="2.354857" /><trkpt lat="48.854483" lon="2.354848" /><trkpt lat="48.854432" lon="2.354803" /><trkpt lat="48.854380" lon="2.354755" /><trkpt lat="48.854345" lon="2.354741" /><trkpt lat="48.854311" lon="2.354725" /><trkpt lat="48.854300" lon="2.354715" /><trkpt lat="48.854286" lon="2.354703" /><trkpt lat="48.854263" lon="2.354720" /><trkpt lat="48.854253" lon="2.354713" /><trkpt lat="48.854242" lon="2.354704" /><trkpt lat="48.853501" lon="2.353975" /><trkpt lat="48.853481" lon="2.353940" /><trkpt lat="48.853475" lon="2.353935" /><trkpt lat="48.853442" lon="2.353902" /><trkpt lat="48.853403" lon="2.353863" /><trkpt lat="48.853390" lon="2.353851" /><trkpt lat="48.853362" lon="2.353839" /><trkpt lat="48.852996" lon="2.353483" /><trkpt lat="48.852963" lon="2.353327" /><trkpt lat="48.852936" lon="2.353348" /><trkpt lat="48.852891" lon="2.353362" /><trkpt lat="48.852848" lon="2.353375" /><trkpt lat="48.852835" lon="2.353379" /><trkpt lat="48.852779" lon="2.353382" /><trkpt lat="48.852776" lon="2.353348" /><trkpt lat="48.852774" lon="2.353322" /><trkpt lat="48.852772" lon="2.353299" /><trkpt lat="48.852770" lon="2.353276" /><trkpt lat="48.852783" lon="2.353269" /><trkpt lat="48.852795" lon="2.353254" /><trkpt lat="48.852802" lon="2.353237" /><trkpt lat="48.852805" lon="2.353220" /><trkpt lat="48.852807" lon="2.353207" /><trkpt lat="48.852620" lon="2.352347" /><trkpt lat="48.852601" lon="2.352326" /><trkpt lat="48.852584" lon="2.352320" /><trkpt lat="48.852325" lon="2.352157" /><trkpt lat="48.851855" lon="2.351853" /><trkpt lat="48.851815" lon="2.351823" /><trkpt lat="48.851782" lon="2.351784" /><trkpt lat="48.851346" lon="2.351504" /><trkpt lat="48.851302" lon="2.351484" /><trkpt lat="48.851257" lon="2.351483" /><trkpt lat="48.851180" lon="2.351507" /><trkpt lat="48.851205" lon="2.351418" /><trkpt lat="48.851226" lon="2.351362" /><trkpt lat="48.851244" lon="2.351304" /><trkpt lat="48.851265" lon="2.351239" /><trkpt lat="48.851249" lon="2.351202" /><trkpt lat="48.851225" lon="2.351185" /><trkpt lat="48.851208" lon="2.351174" /><trkpt lat="48.851163" lon="2.351145" /><trkpt lat="48.851127" lon="2.351122" /><trkpt lat="48.851093" lon="2.351100" /><trkpt lat="48.851184" lon="2.350837" /><trkpt lat="48.851187" lon="2.350831" /><trkpt lat="48.851195" lon="2.350810" /><trkpt lat="48.851206" lon="2.350781" /><trkpt lat="48.851207" lon="2.350776" /><trkpt lat="48.851184" lon="2.350759" /><trkpt lat="48.851240" lon="2.350424" /><trkpt lat="48.851231" lon="2.350348" /><trkpt lat="48.851193" lon="2.350244" /><trkpt lat="48.851186" lon="2.350237" /><trkpt lat="48.851043" lon="2.350108" /><trkpt lat="48.850744" lon="2.349834" /><trkpt lat="48.850420" lon="2.349502" /><trkpt lat="48.850397" lon="2.349461" /><trkpt lat="48.850393" lon="2.348961" /><trkpt lat="48.850388" lon="2.348844" /><trkpt lat="48.850387" lon="2.348839" /><trkpt lat="48.850364" lon="2.348808" /><trkpt lat="48.850380" lon="2.348791" /><trkpt lat="48.850407" lon="2.348771" /><trkpt lat="48.850371" lon="2.348690" /><trkpt lat="48.850343" lon="2.348630" /><trkpt lat="48.850328" lon="2.348597" /><trkpt lat="48.850312" lon="2.348562" /><trkpt lat="48.850281" lon="2.348518" /><trkpt lat="48.850228" lon="2.348469" /><trkpt lat="48.850211" lon="2.348458" /><trkpt lat="48.850177" lon="2.348436" /><trkpt lat="48.850132" lon="2.348411" /><trkpt lat="48.850202" lon="2.348130" /><trkpt lat="48.850078" lon="2.348067" /><trkpt lat="48.849810" lon="2.347941" /><trkpt lat="48.849724" lon="2.347873" /><trkpt lat="48.849672" lon="2.347847" /><trkpt lat="48.848975" lon="2.347500" /><trkpt lat="48.848900" lon="2.347463" /><trkpt lat="48.848823" lon="2.347426" /><trkpt lat="48.848705" lon="2.347370" /><trkpt lat="48.848695" lon="2.347366" /><trkpt lat="48.848183" lon="2.347122" /><trkpt lat="48.848112" lon="2.347087" /><trkpt lat="48.848055" lon="2.347059" /><trkpt lat="48.847494" lon="2.346785" /><trkpt lat="48.846791" lon="2.346446" /><trkpt lat="48.846801" lon="2.346400" /><trkpt lat="48.846804" lon="2.346384" /><trkpt lat="48.846812" lon="2.346346" /><trkpt lat="48.846757" lon="2.346318" /><trkpt lat="48.846724" lon="2.346302" /><trkpt lat="48.846669" lon="2.346274" /><trkpt lat="48.846645" lon="2.346262" /><trkpt lat="48.846688" lon="2.346060" /><trkpt lat="48.846599" lon="2.346009" /><trkpt lat="48.846747" lon="2.345337" /><trkpt lat="48.846740" lon="2.345295" /><trkpt lat="48.846528" lon="2.345189" /><trkpt lat="48.846295" lon="2.345073" /><trkpt lat="48.846074" lon="2.344959" /><trkpt lat="48.846079" lon="2.344933" /><trkpt lat="48.846064" lon="2.344873" /><trkpt lat="48.846546" lon="2.344494" /><trkpt lat="48.846567" lon="2.344386" /><trkpt lat="48.846613" lon="2.344178" /><trkpt lat="48.846711" lon="2.343739" /><trkpt lat="48.846756" lon="2.343537" /><trkpt lat="48.846771" lon="2.343467" /><trkpt lat="48.846797" lon="2.343348" /><trkpt lat="48.846821" lon="2.343229" /><trkpt lat="48.846906" lon="2.342828" /><trkpt lat="48.846941" lon="2.342669" /><trkpt lat="48.846979" lon="2.342504" /><trkpt lat="48.847081" lon="2.342030" /><trkpt lat="48.847149" lon="2.342071" /><trkpt lat="48.847168" lon="2.342081" /><trkpt lat="48.847177" lon="2.342071" /><trkpt lat="48.847180" lon="2.342058" /><trkpt lat="48.847190" lon="2.342018" /><trkpt lat="48.847197" lon="2.341992" /><trkpt lat="48.847203" lon="2.341972" /><trkpt lat="48.847212" lon="2.341933" /><trkpt lat="48.847232" lon="2.341839" /><trkpt lat="48.847312" lon="2.341455" /><trkpt lat="48.847363" lon="2.341201" /><trkpt lat="48.847386" lon="2.341116" /><trkpt lat="48.847422" lon="2.341087" /><trkpt lat="48.847468" lon="2.341074" /><trkpt lat="48.847535" lon="2.341091" /><trkpt lat="48.847540" lon="2.341072" /><trkpt lat="48.847548" lon="2.341046" /><trkpt lat="48.847566" lon="2.340982" /><trkpt lat="48.847576" lon="2.340944" /><trkpt lat="48.847583" lon="2.340918" /><trkpt lat="48.847590" lon="2.340893" /><trkpt lat="48.847601" lon="2.340857" /><trkpt lat="48.847609" lon="2.340828" /><trkpt lat="48.847597" lon="2.340768" /><trkpt lat="48.847725" lon="2.340166" /><trkpt lat="48.847750" lon="2.340139" /><trkpt lat="48.848947" lon="2.339125" /><trkpt lat="48.849028" lon="2.339152" /><trkpt lat="48.849041" lon="2.339155" /><trkpt lat="48.849075" lon="2.339161" /><trkpt lat="48.849077" lon="2.339035" /><trkpt lat="48.849072" lon="2.338871" /><trkpt lat="48.849066" lon="2.338694" /><trkpt lat="48.849108" lon="2.338601" /><trkpt lat="48.849179" lon="2.338428" /><trkpt lat="48.849195" lon="2.338338" /><trkpt lat="48.849234" lon="2.338347" /><trkpt lat="48.849239" lon="2.338347" /><trkpt lat="48.849301" lon="2.337899" /><trkpt lat="48.849320" lon="2.337898" /><trkpt lat="48.849322" lon="2.337883" /><trkpt lat="48.849332" lon="2.337848" /><trkpt lat="48.849347" lon="2.337812" /><trkpt lat="48.849356" lon="2.337776" /><trkpt lat="48.849351" lon="2.337761" /><trkpt lat="48.849350" lon="2.337725" /><trkpt lat="48.849402" lon="2.337473" /><trkpt lat="48.849401" lon="2.337427" /><trkpt lat="48.849399" lon="2.337323" /><trkpt lat="48.849396" lon="2.337203" /><trkpt lat="48.849393" lon="2.337178" /><trkpt lat="48.849358" lon="2.337161" /><trkpt lat="48.849345" lon="2.337162" /><trkpt lat="48.849358" lon="2.337161" /><trkpt lat="48.849393" lon="2.337178" /><trkpt lat="48.850278" lon="2.337102" /><trkpt lat="48.851415" lon="2.337007" /><trkpt lat="48.851424" lon="2.336973" /><trkpt lat="48.851434" lon="2.336968" /><trkpt lat="48.851454" lon="2.336965" /><trkpt lat="48.851483" lon="2.336962" /><trkpt lat="48.851492" lon="2.336960" /><trkpt lat="48.851508" lon="2.336997" /><trkpt lat="48.851707" lon="2.336989" /><trkpt lat="48.851728" lon="2.336978" /><trkpt lat="48.851737" lon="2.336978" /><trkpt lat="48.851759" lon="2.336980" /><trkpt lat="48.851784" lon="2.336979" /><trkpt lat="48.851792" lon="2.336973" /><trkpt lat="48.851810" lon="2.336985" /><trkpt lat="48.851815" lon="2.337007" /><trkpt lat="48.851815" lon="2.337044" /><trkpt lat="48.851817" lon="2.337101" /><trkpt lat="48.851819" lon="2.337116" /><trkpt lat="48.852490" lon="2.337086" /><trkpt lat="48.852490" lon="2.337067" /><trkpt lat="48.852485" lon="2.337007" /><trkpt lat="48.852534" lon="2.337005" /><trkpt lat="48.852772" lon="2.336997" /><trkpt lat="48.852847" lon="2.336993" /><trkpt lat="48.852902" lon="2.336992" /><trkpt lat="48.853018" lon="2.336986" /><trkpt lat="48.853782" lon="2.336952" /><trkpt lat="48.853850" lon="2.336956" /><trkpt lat="48.853909" lon="2.336959" /><trkpt lat="48.853930" lon="2.336956" /><trkpt lat="48.854506" lon="2.336879" /><trkpt lat="48.854532" lon="2.336804" /><trkpt lat="48.854629" lon="2.336516" /><trkpt lat="48.854769" lon="2.336101" /><trkpt lat="48.855460" lon="2.334071" /><trkpt lat="48.855469" lon="2.334045" /><trkpt lat="48.855480" lon="2.334013" /><trkpt lat="48.855505" lon="2.333939" /><trkpt lat="48.855523" lon="2.333890" /><trkpt lat="48.855629" lon="2.333591" /><trkpt lat="48.855659" lon="2.333508" /><trkpt lat="48.855684" lon="2.333437" /><trkpt lat="48.856028" lon="2.332475" /><trkpt lat="48.856163" lon="2.332098" /><trkpt lat="48.856168" lon="2.332084" /><trkpt lat="48.856268" lon="2.331803" /><trkpt lat="48.856285" lon="2.331757" /><trkpt lat="48.856315" lon="2.331672" /><trkpt lat="48.856346" lon="2.331592" /><trkpt lat="48.856763" lon="2.330483" /><trkpt lat="48.856815" lon="2.330347" /><trkpt lat="48.857327" lon="2.328976" /><trkpt lat="48.857355" lon="2.328900" /><trkpt lat="48.857381" lon="2.328833" /><trkpt lat="48.857672" lon="2.328071" /><trkpt lat="48.857709" lon="2.327973" /><trkpt lat="48.857737" lon="2.327897" /><trkpt lat="48.858040" lon="2.327079" /><trkpt lat="48.858429" lon="2.325884" /><trkpt lat="48.858447" lon="2.325824" /><trkpt lat="48.858784" lon="2.324944" /><trkpt lat="48.858812" lon="2.324869" /><trkpt lat="48.858925" lon="2.324568" /><trkpt lat="48.859192" lon="2.323852" /><trkpt lat="48.859212" lon="2.323799" /><trkpt lat="48.859237" lon="2.323731" /><trkpt lat="48.859467" lon="2.323114" /><trkpt lat="48.859509" lon="2.323002" /><trkpt lat="48.859555" lon="2.322879" /><trkpt lat="48.859866" lon="2.322034" /><trkpt lat="48.859928" lon="2.321879" /><trkpt lat="48.859992" lon="2.321718" /><trkpt lat="48.860086" lon="2.321629" /><trkpt lat="48.860258" lon="2.321472" /><trkpt lat="48.861017" lon="2.320780" /><trkpt lat="48.861200" lon="2.320617" /><trkpt lat="48.861274" lon="2.320547" /><trkpt lat="48.861417" lon="2.320413" /><trkpt lat="48.861496" lon="2.320334" /><trkpt lat="48.861918" lon="2.319905" /><trkpt lat="48.861949" lon="2.319875" /><trkpt lat="48.861970" lon="2.319855" /><trkpt lat="48.862036" lon="2.319787" /><trkpt lat="48.862175" lon="2.319656" /><trkpt lat="48.862289" lon="2.319520" /><trkpt lat="48.862317" lon="2.319565" /><trkpt lat="48.862338" lon="2.319599" /><trkpt lat="48.862427" lon="2.319498" /><trkpt lat="48.862483" lon="2.319536" /><trkpt lat="48.862517" lon="2.319558" /><trkpt lat="48.862535" lon="2.319571" /><trkpt lat="48.862542" lon="2.319576" /><trkpt lat="48.862555" lon="2.319584" /><trkpt lat="48.862579" lon="2.319600" /><trkpt lat="48.862676" lon="2.319298" /></trkseg></trk></gpx>