<?xml version='1.0' encoding='utf-8'?>
<gpx xmlns="http://www.topografix.com/GPX/1/1" version="1.1" creator="Cruce — Paris route 05"><trk><name>05_llegada_Republique</name><desc>05-v10-20261005; 0.026 km Valhalla pedestrian; arrival; no field inspection</desc><trkseg><trkpt lat="48.867286" lon="2.364189" /><trkpt lat="48.867267" lon="2.364206" /><trkpt lat="48.867223" lon="2.364145" /><trkpt lat="48.867328" lon="2.363979" /></trkseg></trk><trk><name>05_salida_Assemblee</name><desc>05-v10-20261005; 0.215 km Valhalla pedestrian; return_final; no field inspection</desc><trkseg><trkpt lat="48.862676" lon="2.319298" /><trkpt lat="48.862579" lon="2.319600" /><trkpt lat="48.862555" lon="2.319584" /><trkpt lat="48.862542" lon="2.319576" /><trkpt lat="48.862535" lon="2.319571" /><trkpt lat="48.862517" lon="2.319558" /><trkpt lat="48.862483" lon="2.319536" /><trkpt lat="48.862427" lon="2.319498" /><trkpt lat="48.862338" lon="2.319599" /><trkpt lat="48.862317" lon="2.319565" /><trkpt lat="48.862289" lon="2.319520" /><trkpt lat="48.862243" lon="2.319443" /><trkpt lat="48.862231" lon="2.319421" /><trkpt lat="48.862175" lon="2.319456" /><trkpt lat="48.862094" lon="2.319484" /><trkpt lat="48.862011" lon="2.319482" /><trkpt lat="48.862008" lon="2.319516" /><trkpt lat="48.862004" lon="2.319572" /><trkpt lat="48.861999" lon="2.319629" /><trkpt lat="48.861990" lon="2.319671" /><trkpt lat="48.861964" lon="2.319679" /><trkpt lat="48.861939" lon="2.319687" /><trkpt lat="48.861909" lon="2.319697" /><trkpt lat="48.861880" lon="2.319706" /><trkpt lat="48.861859" lon="2.319762" /><trkpt lat="48.861430" lon="2.320170" /><trkpt lat="48.861392" lon="2.320239" /><trkpt lat="48.861368" lon="2.320262" /><trkpt lat="48.861337" lon="2.320291" /><trkpt lat="48.861306" lon="2.320282" /><trkpt lat="48.861319" lon="2.320316" /><trkpt lat="48.861306" lon="2.320330" /><trkpt lat="48.861262" lon="2.320374" /></trkseg></trk><trk><name>05_V0_salida_Pantheon_Luxembourg</name><desc>05-v10-20261005; 0.467 km Valhalla pedestrian; early_exit; no field inspection</desc><trkseg><trkpt lat="48.846295" lon="2.345073" /><trkpt lat="48.846074" lon="2.344959" /><trkpt lat="48.846079" lon="2.344933" /><trkpt lat="48.846064" lon="2.344873" /><trkpt lat="48.846039" lon="2.344771" /><trkpt lat="48.846034" lon="2.344754" /><trkpt lat="48.846230" lon="2.344606" /><trkpt lat="48.846389" lon="2.344482" /><trkpt lat="48.846475" lon="2.344343" /><trkpt lat="48.846617" lon="2.343699" /><trkpt lat="48.846682" lon="2.343415" /><trkpt lat="48.846691" lon="2.343375" /><trkpt lat="48.846693" lon="2.343362" /><trkpt lat="48.846703" lon="2.343316" /><trkpt lat="48.846708" lon="2.343296" /><trkpt lat="48.846735" lon="2.343182" /><trkpt lat="48.846776" lon="2.343001" /><trkpt lat="48.846790" lon="2.342930" /><trkpt lat="48.846811" lon="2.342835" /><trkpt lat="48.846813" lon="2.342823" /><trkpt lat="48.846823" lon="2.342781" /><trkpt lat="48.846833" lon="2.342736" /><trkpt lat="48.846824" lon="2.342694" /><trkpt lat="48.846913" lon="2.342283" /><trkpt lat="48.847000" lon="2.341981" /><trkpt lat="48.847008" lon="2.341955" /><trkpt lat="48.847012" lon="2.341942" /><trkpt lat="48.847018" lon="2.341895" /><trkpt lat="48.847024" lon="2.341841" /><trkpt lat="48.847026" lon="2.341824" /><trkpt lat="48.847028" lon="2.341798" /><trkpt lat="48.847123" lon="2.341370" /><trkpt lat="48.847198" lon="2.341115" /><trkpt lat="48.847216" lon="2.341019" /><trkpt lat="48.847207" lon="2.340944" /><trkpt lat="48.847173" lon="2.340899" /><trkpt lat="48.847052" lon="2.340841" /><trkpt lat="48.846988" lon="2.340803" /><trkpt lat="48.846937" lon="2.340829" /><trkpt lat="48.846928" lon="2.340821" /><trkpt lat="48.846857" lon="2.340780" /><trkpt lat="48.846830" lon="2.340764" /><trkpt lat="48.846810" lon="2.340753" /><trkpt lat="48.846770" lon="2.340730" /><trkpt lat="48.846733" lon="2.340709" /><trkpt lat="48.846715" lon="2.340699" /><trkpt lat="48.846690" lon="2.340685" /><trkpt lat="48.846681" lon="2.340622" /><trkpt lat="48.846695" lon="2.340598" /><trkpt lat="48.846715" lon="2.340505" /><trkpt lat="48.846730" lon="2.340436" /><trkpt lat="48.846732" lon="2.340427" /><trkpt lat="48.846737" lon="2.340401" /><trkpt lat="48.846741" lon="2.340384" /><trkpt lat="48.846745" lon="2.340364" /><trkpt lat="48.846751" lon="2.340336" /><trkpt lat="48.846816" lon="2.340316" /><trkpt lat="48.846783" lon="2.340286" /><trkpt lat="48.846738" lon="2.340279" /></trkseg></trk><trk><name>05_V0_salida_Senat_Odeon</name><desc>05-v10-20261005; 0.433 km Valhalla pedestrian; senate_early_exit; no field inspection</desc><trkseg><trkpt lat="48.849345" lon="2.337162" /><trkpt lat="48.849358" lon="2.337161" /><trkpt lat="48.849393" lon="2.337178" /><trkpt lat="48.849396" lon="2.337203" /><trkpt lat="48.849399" lon="2.337323" /><trkpt lat="48.849401" lon="2.337427" /><trkpt lat="48.849402" lon="2.337473" /><trkpt lat="48.849350" lon="2.337725" /><trkpt lat="48.849351" lon="2.337761" /><trkpt lat="48.849356" lon="2.337776" /><trkpt lat="48.849478" lon="2.337799" /><trkpt lat="48.849889" lon="2.337874" /><trkpt lat="48.850428" lon="2.337963" /><trkpt lat="48.850799" lon="2.338028" /><trkpt lat="48.851186" lon="2.338093" /><trkpt lat="48.851389" lon="2.338178" /><trkpt lat="48.851434" lon="2.338183" /><trkpt lat="48.851431" lon="2.338204" /><trkpt lat="48.851429" lon="2.338223" /><trkpt lat="48.851426" lon="2.338251" /><trkpt lat="48.851427" lon="2.338269" /><trkpt lat="48.851546" lon="2.338342" /><trkpt lat="48.851752" lon="2.338496" /><trkpt lat="48.851715" lon="2.338611" /><trkpt lat="48.851717" lon="2.338646" /><trkpt lat="48.851722" lon="2.338691" /><trkpt lat="48.851725" lon="2.338714" /><trkpt lat="48.851741" lon="2.338757" /><trkpt lat="48.851765" lon="2.338770" /><trkpt lat="48.851785" lon="2.338771" /><trkpt lat="48.851812" lon="2.338764" /><trkpt lat="48.851841" lon="2.338757" /><trkpt lat="48.851869" lon="2.338775" /><trkpt lat="48.851967" lon="2.338765" /><trkpt lat="48.852003" lon="2.338739" /><trkpt lat="48.852113" lon="2.338750" /><trkpt lat="48.852210" lon="2.338771" /><trkpt lat="48.852222" lon="2.338779" /><trkpt lat="48.852227" lon="2.338788" /><trkpt lat="48.852233" lon="2.338812" /><trkpt lat="48.852229" lon="2.338834" /><trkpt lat="48.852243" lon="2.338844" /><trkpt lat="48.852265" lon="2.338860" /><trkpt lat="48.852292" lon="2.338880" /><trkpt lat="48.852304" lon="2.338888" /><trkpt lat="48.852277" lon="2.339002" /><trkpt lat="48.852298" lon="2.339013" /><trkpt lat="48.852300" lon="2.339003" /><trkpt lat="48.852317" lon="2.338939" /></trkseg></trk><trk><name>05_V2_bypass_catedral</name><desc>05-v10-20261005; 3.597 km Valhalla pedestrian; v2_islands_bypass; no field inspection</desc><trkseg><trkpt lat="48.867328" lon="2.363979" /><trkpt lat="48.867262" lon="2.363900" /><trkpt lat="48.867218" lon="2.363835" /><trkpt lat="48.867138" lon="2.363722" /><trkpt lat="48.867132" lon="2.363714" /><trkpt lat="48.867123" lon="2.363701" /><trkpt lat="48.867068" lon="2.363624" /><trkpt lat="48.867032" lon="2.363572" /><trkpt lat="48.867110" lon="2.363440" /><trkpt lat="48.867156" lon="2.363366" /><trkpt lat="48.867139" lon="2.363317" /><trkpt lat="48.867120" lon="2.363266" /><trkpt lat="48.867083" lon="2.363153" /><trkpt lat="48.867072" lon="2.363126" /><trkpt lat="48.867066" lon="2.363105" /><trkpt lat="48.867056" lon="2.363079" /><trkpt lat="48.867041" lon="2.363067" /><trkpt lat="48.867020" lon="2.362989" /><trkpt lat="48.866670" lon="2.362113" /><trkpt lat="48.866529" lon="2.361768" /><trkpt lat="48.866553" lon="2.361741" /><trkpt lat="48.866572" lon="2.361709" /><trkpt lat="48.866608" lon="2.361649" /><trkpt lat="48.866625" lon="2.361631" /><trkpt lat="48.866639" lon="2.361615" /><trkpt lat="48.866661" lon="2.361592" /><trkpt lat="48.866596" lon="2.361360" /><trkpt lat="48.866590" lon="2.361337" /><trkpt lat="48.866581" lon="2.361302" /><trkpt lat="48.866564" lon="2.361251" /><trkpt lat="48.866549" lon="2.361200" /><trkpt lat="48.866389" lon="2.360469" /><trkpt lat="48.866375" lon="2.360408" /><trkpt lat="48.866242" lon="2.359840" /><trkpt lat="48.866235" lon="2.359807" /><trkpt lat="48.866223" lon="2.359755" /><trkpt lat="48.866195" lon="2.359628" /><trkpt lat="48.866188" lon="2.359597" /><trkpt lat="48.865893" lon="2.358293" /><trkpt lat="48.865881" lon="2.358254" /><trkpt lat="48.865875" lon="2.358236" /><trkpt lat="48.865857" lon="2.358159" /><trkpt lat="48.865842" lon="2.358097" /><trkpt lat="48.865829" lon="2.358057" /><trkpt lat="48.865828" lon="2.358020" /><trkpt lat="48.865730" lon="2.357578" /><trkpt lat="48.865723" lon="2.357554" /><trkpt lat="48.865710" lon="2.357535" /><trkpt lat="48.865712" lon="2.357521" /><trkpt lat="48.865695" lon="2.357444" /><trkpt lat="48.865673" lon="2.357345" /><trkpt lat="48.865668" lon="2.357335" /><trkpt lat="48.865671" lon="2.357323" /><trkpt lat="48.865672" lon="2.357305" /><trkpt lat="48.865623" lon="2.357103" /><trkpt lat="48.865551" lon="2.356811" /><trkpt lat="48.865531" lon="2.356723" /><trkpt lat="48.865490" lon="2.356553" /><trkpt lat="48.865466" lon="2.356425" /><trkpt lat="48.865445" lon="2.356427" /><trkpt lat="48.865431" lon="2.356423" /><trkpt lat="48.865390" lon="2.356396" /><trkpt lat="48.865356" lon="2.356379" /><trkpt lat="48.865329" lon="2.356366" /><trkpt lat="48.865320" lon="2.355826" /><trkpt lat="48.865307" lon="2.355810" /><trkpt lat="48.865290" lon="2.355800" /><trkpt lat="48.865265" lon="2.355791" /><trkpt lat="48.865234" lon="2.355796" /><trkpt lat="48.865223" lon="2.355787" /><trkpt lat="48.865196" lon="2.355766" /><trkpt lat="48.865181" lon="2.355754" /><trkpt lat="48.865158" lon="2.355736" /><trkpt lat="48.865152" lon="2.355718" /><trkpt lat="48.865140" lon="2.355708" /><trkpt lat="48.865152" lon="2.355671" /><trkpt lat="48.865156" lon="2.355660" /><trkpt lat="48.865167" lon="2.355629" /><trkpt lat="48.865189" lon="2.355570" /><trkpt lat="48.865184" lon="2.355524" /><trkpt lat="48.865213" lon="2.355482" /><trkpt lat="48.865237" lon="2.355447" /><trkpt lat="48.865150" lon="2.355080" /><trkpt lat="48.865048" lon="2.354664" /><trkpt lat="48.865043" lon="2.354645" /><trkpt lat="48.865034" lon="2.354604" /><trkpt lat="48.865021" lon="2.354554" /><trkpt lat="48.865005" lon="2.354492" /><trkpt lat="48.865002" lon="2.354476" /><trkpt lat="48.864990" lon="2.354379" /><trkpt lat="48.864809" lon="2.353586" /><trkpt lat="48.864792" lon="2.353535" /><trkpt lat="48.864788" lon="2.353520" /><trkpt lat="48.864774" lon="2.353469" /><trkpt lat="48.864761" lon="2.353426" /><trkpt lat="48.864756" lon="2.353410" /><trkpt lat="48.864761" lon="2.353388" /><trkpt lat="48.864745" lon="2.353349" /><trkpt lat="48.864741" lon="2.353328" /><trkpt lat="48.864729" lon="2.353271" /><trkpt lat="48.864718" lon="2.353219" /><trkpt lat="48.864711" lon="2.353189" /><trkpt lat="48.864701" lon="2.353108" /><trkpt lat="48.864520" lon="2.352290" /><trkpt lat="48.864475" lon="2.352088" /><trkpt lat="48.864385" lon="2.351680" /><trkpt lat="48.864369" lon="2.351660" /><trkpt lat="48.864353" lon="2.351580" /><trkpt lat="48.864329" lon="2.351474" /><trkpt lat="48.864304" lon="2.351369" /><trkpt lat="48.864298" lon="2.351344" /><trkpt lat="48.864285" lon="2.351281" /><trkpt lat="48.864260" lon="2.351265" /><trkpt lat="48.864245" lon="2.351256" /><trkpt lat="48.864226" lon="2.351244" /><trkpt lat="48.864193" lon="2.351223" /><trkpt lat="48.864131" lon="2.351193" /><trkpt lat="48.863582" lon="2.350879" /><trkpt lat="48.863511" lon="2.350836" /><trkpt lat="48.863505" lon="2.350832" /><trkpt lat="48.863443" lon="2.350797" /><trkpt lat="48.863384" lon="2.350764" /><trkpt lat="48.863377" lon="2.350760" /><trkpt lat="48.863350" lon="2.350772" /><trkpt lat="48.863274" lon="2.350730" /><trkpt lat="48.862976" lon="2.350557" /><trkpt lat="48.862955" lon="2.350544" /><trkpt lat="48.862939" lon="2.350535" /><trkpt lat="48.862492" lon="2.350273" /><trkpt lat="48.862076" lon="2.350047" /><trkpt lat="48.862066" lon="2.350043" /><trkpt lat="48.862020" lon="2.350022" /><trkpt lat="48.861982" lon="2.350003" /><trkpt lat="48.861966" lon="2.349985" /><trkpt lat="48.861768" lon="2.349875" /><trkpt lat="48.861560" lon="2.349760" /><trkpt lat="48.861451" lon="2.349703" /><trkpt lat="48.861415" lon="2.349683" /><trkpt lat="48.861254" lon="2.349581" /><trkpt lat="48.861134" lon="2.349494" /><trkpt lat="48.860944" lon="2.349391" /><trkpt lat="48.860683" lon="2.349250" /><trkpt lat="48.860626" lon="2.349212" /><trkpt lat="48.860583" lon="2.349191" /><trkpt lat="48.860547" lon="2.349172" /><trkpt lat="48.860156" lon="2.348968" /><trkpt lat="48.860085" lon="2.348933" /><trkpt lat="48.860012" lon="2.348908" /><trkpt lat="48.859984" lon="2.348894" /><trkpt lat="48.859606" lon="2.348671" /><trkpt lat="48.859591" lon="2.348656" /><trkpt lat="48.859566" lon="2.348639" /><trkpt lat="48.859543" lon="2.348625" /><trkpt lat="48.859529" lon="2.348620" /><trkpt lat="48.859504" lon="2.348609" /><trkpt lat="48.859200" lon="2.348441" /><trkpt lat="48.858679" lon="2.348143" /><trkpt lat="48.858650" lon="2.348104" /><trkpt lat="48.858622" lon="2.348086" /><trkpt lat="48.858594" lon="2.348075" /><trkpt lat="48.858562" lon="2.348062" /><trkpt lat="48.858525" lon="2.348046" /><trkpt lat="48.858511" lon="2.348041" /><trkpt lat="48.858493" lon="2.348032" /><trkpt lat="48.858474" lon="2.348044" /><trkpt lat="48.857882" lon="2.347711" /><trkpt lat="48.857861" lon="2.347661" /><trkpt lat="48.857828" lon="2.347643" /><trkpt lat="48.857772" lon="2.347607" /><trkpt lat="48.857698" lon="2.347557" /><trkpt lat="48.857674" lon="2.347542" /><trkpt lat="48.857743" lon="2.347272" /><trkpt lat="48.857745" lon="2.347211" /><trkpt lat="48.857771" lon="2.347111" /><trkpt lat="48.857799" lon="2.347006" /><trkpt lat="48.857807" lon="2.346969" /><trkpt lat="48.857707" lon="2.346907" /><trkpt lat="48.857445" lon="2.346750" /><trkpt lat="48.857437" lon="2.346725" /><trkpt lat="48.857419" lon="2.346717" /><trkpt lat="48.857338" lon="2.346722" /><trkpt lat="48.857268" lon="2.346731" /><trkpt lat="48.857250" lon="2.346735" /><trkpt lat="48.857211" lon="2.346842" /><trkpt lat="48.857192" lon="2.346857" /><trkpt lat="48.857171" lon="2.346864" /><trkpt lat="48.857177" lon="2.346909" /><trkpt lat="48.857168" lon="2.346982" /><trkpt lat="48.857157" lon="2.347060" /><trkpt lat="48.857126" lon="2.347164" /><trkpt lat="48.857115" lon="2.347140" /><trkpt lat="48.857106" lon="2.347134" /><trkpt lat="48.856824" lon="2.346958" /><trkpt lat="48.856684" lon="2.346871" /><trkpt lat="48.856672" lon="2.346913" /><trkpt lat="48.856660" lon="2.346957" /><trkpt lat="48.856217" lon="2.346687" /><trkpt lat="48.856209" lon="2.346682" /><trkpt lat="48.856178" lon="2.346663" /><trkpt lat="48.856150" lon="2.346644" /><trkpt lat="48.856099" lon="2.346609" /><trkpt lat="48.856082" lon="2.346597" /><trkpt lat="48.855515" lon="2.346248" /><trkpt lat="48.855493" lon="2.346234" /><trkpt lat="48.855423" lon="2.346168" /><trkpt lat="48.855310" lon="2.346061" /><trkpt lat="48.855284" lon="2.346035" /><trkpt lat="48.855220" lon="2.345975" /><trkpt lat="48.855095" lon="2.345864" /><trkpt lat="48.854493" lon="2.345233" /><trkpt lat="48.854371" lon="2.345111" /><trkpt lat="48.854355" lon="2.345098" /><trkpt lat="48.854295" lon="2.345040" /><trkpt lat="48.854247" lon="2.344995" /><trkpt lat="48.854217" lon="2.344965" /><trkpt lat="48.853809" lon="2.344552" /><trkpt lat="48.853791" lon="2.344568" /><trkpt lat="48.853779" lon="2.344611" /><trkpt lat="48.853747" lon="2.344722" /><trkpt lat="48.853731" lon="2.344779" /><trkpt lat="48.853719" lon="2.344772" /><trkpt lat="48.853724" lon="2.344754" /><trkpt lat="48.853739" lon="2.344701" /><trkpt lat="48.853744" lon="2.344681" /><trkpt lat="48.853751" lon="2.344657" /><trkpt lat="48.853764" lon="2.344606" /><trkpt lat="48.853766" lon="2.344602" /><trkpt lat="48.853778" lon="2.344560" /><trkpt lat="48.853762" lon="2.344560" /><trkpt lat="48.853746" lon="2.344560" /><trkpt lat="48.853699" lon="2.344559" /><trkpt lat="48.853631" lon="2.344557" /><trkpt lat="48.853621" lon="2.344546" /><trkpt lat="48.853571" lon="2.344486" /><trkpt lat="48.853501" lon="2.344416" /><trkpt lat="48.853381" lon="2.344355" /><trkpt lat="48.853366" lon="2.344350" /><trkpt lat="48.853348" lon="2.344352" /><trkpt lat="48.853327" lon="2.344354" /><trkpt lat="48.853263" lon="2.344282" /><trkpt lat="48.853186" lon="2.344206" /><trkpt lat="48.853080" lon="2.344125" /><trkpt lat="48.852872" lon="2.344023" /><trkpt lat="48.852766" lon="2.343988" /><trkpt lat="48.852754" lon="2.343982" /><trkpt lat="48.852730" lon="2.343974" /><trkpt lat="48.852706" lon="2.343964" /><trkpt lat="48.852690" lon="2.343959" /><trkpt lat="48.852664" lon="2.343953" /><trkpt lat="48.852678" lon="2.343877" /><trkpt lat="48.852697" lon="2.343792" /><trkpt lat="48.851929" lon="2.343422" /><trkpt lat="48.851843" lon="2.343380" /><trkpt lat="48.851763" lon="2.343341" /><trkpt lat="48.851593" lon="2.343263" /><trkpt lat="48.851398" lon="2.343172" /><trkpt lat="48.851343" lon="2.343145" /><trkpt lat="48.851253" lon="2.343103" /><trkpt lat="48.850691" lon="2.342835" /><trkpt lat="48.850626" lon="2.342803" /><trkpt lat="48.850426" lon="2.342707" /><trkpt lat="48.850308" lon="2.342644" /><trkpt lat="48.850167" lon="2.342563" /><trkpt lat="48.850004" lon="2.342466" /><trkpt lat="48.849915" lon="2.342412" /><trkpt lat="48.849774" lon="2.342326" /><trkpt lat="48.849607" lon="2.342220" /><trkpt lat="48.848921" lon="2.341806" /><trkpt lat="48.848862" lon="2.341771" /><trkpt lat="48.848836" lon="2.341755" /><trkpt lat="48.848718" lon="2.341684" /><trkpt lat="48.848669" lon="2.341655" /><trkpt lat="48.848629" lon="2.341630" /><trkpt lat="48.848371" lon="2.341472" /><trkpt lat="48.847752" lon="2.341101" /><trkpt lat="48.847566" lon="2.340982" /><trkpt lat="48.847548" lon="2.341046" /><trkpt lat="48.847540" lon="2.341072" /><trkpt lat="48.847535" lon="2.341091" /><trkpt lat="48.847468" lon="2.341074" /><trkpt lat="48.847422" lon="2.341087" /><trkpt lat="48.847386" lon="2.341116" /><trkpt lat="48.847363" lon="2.341201" /><trkpt lat="48.847337" lon="2.341187" /><trkpt lat="48.847270" lon="2.341152" /><trkpt lat="48.847218" lon="2.341125" /><trkpt lat="48.847198" lon="2.341115" /><trkpt lat="48.847123" lon="2.341370" /><trkpt lat="48.847028" lon="2.341798" /><trkpt lat="48.847026" lon="2.341824" /><trkpt lat="48.847024" lon="2.341841" /><trkpt lat="48.847018" lon="2.341895" /><trkpt lat="48.847012" lon="2.341942" /><trkpt lat="48.847008" lon="2.341955" /><trkpt lat="48.847000" lon="2.341981" /><trkpt lat="48.846913" lon="2.342283" /><trkpt lat="48.846824" lon="2.342694" /><trkpt lat="48.846833" lon="2.342736" /><trkpt lat="48.846823" lon="2.342781" /><trkpt lat="48.846813" lon="2.342823" /><trkpt lat="48.846811" lon="2.342835" /><trkpt lat="48.846790" lon="2.342930" /><trkpt lat="48.846776" lon="2.343001" /><trkpt lat="48.846735" lon="2.343182" /><trkpt lat="48.846708" lon="2.343296" /><trkpt lat="48.846703" lon="2.343316" /><trkpt lat="48.846693" lon="2.343362" /><trkpt lat="48.846691" lon="2.343375" /><trkpt lat="48.846682" lon="2.343415" /><trkpt lat="48.846617" lon="2.343699" /><trkpt lat="48.846475" lon="2.344343" /><trkpt lat="48.846389" lon="2.344482" /><trkpt lat="48.846230" lon="2.344606" /><trkpt lat="48.846034" lon="2.344754" /><trkpt lat="48.846039" lon="2.344771" /><trkpt lat="48.846064" lon="2.344873" /><trkpt lat="48.846079" lon="2.344933" /><trkpt lat="48.846074" lon="2.344959" /><trkpt lat="48.846295" lon="2.345073" /></trkseg></trk><trk><name>05_V3_Senat_Malraux</name><desc>05-v10-20261005; 0.791 km Valhalla pedestrian; v3_refuge_a; no field inspection</desc><trkseg><trkpt lat="48.849345" lon="2.337162" /><trkpt lat="48.849358" lon="2.337161" /><trkpt lat="48.849337" lon="2.336806" /><trkpt lat="48.849335" lon="2.336757" /><trkpt lat="48.849324" lon="2.336523" /><trkpt lat="48.849322" lon="2.336463" /><trkpt lat="48.849308" lon="2.336110" /><trkpt lat="48.849328" lon="2.336077" /><trkpt lat="48.849352" lon="2.336042" /><trkpt lat="48.849345" lon="2.336009" /><trkpt lat="48.849347" lon="2.335971" /><trkpt lat="48.849342" lon="2.335928" /><trkpt lat="48.849341" lon="2.335909" /><trkpt lat="48.849315" lon="2.335904" /><trkpt lat="48.849309" lon="2.335889" /><trkpt lat="48.849297" lon="2.335770" /><trkpt lat="48.849272" lon="2.335409" /><trkpt lat="48.849205" lon="2.334990" /><trkpt lat="48.849196" lon="2.334900" /><trkpt lat="48.849202" lon="2.334881" /><trkpt lat="48.849190" lon="2.334861" /><trkpt lat="48.849188" lon="2.334839" /><trkpt lat="48.849185" lon="2.334814" /><trkpt lat="48.849098" lon="2.334602" /><trkpt lat="48.849039" lon="2.334123" /><trkpt lat="48.849035" lon="2.334092" /><trkpt lat="48.849033" lon="2.334074" /><trkpt lat="48.849015" lon="2.333927" /><trkpt lat="48.848827" lon="2.332999" /><trkpt lat="48.848828" lon="2.332929" /><trkpt lat="48.848828" lon="2.332875" /><trkpt lat="48.848810" lon="2.332857" /><trkpt lat="48.848785" lon="2.332757" /><trkpt lat="48.848760" lon="2.332688" /><trkpt lat="48.848756" lon="2.332671" /><trkpt lat="48.848723" lon="2.332665" /><trkpt lat="48.848648" lon="2.332372" /><trkpt lat="48.848601" lon="2.332201" /><trkpt lat="48.848493" lon="2.331774" /><trkpt lat="48.848513" lon="2.331734" /><trkpt lat="48.848508" lon="2.331720" /><trkpt lat="48.848488" lon="2.331657" /><trkpt lat="48.848477" lon="2.331613" /><trkpt lat="48.848468" lon="2.331597" /><trkpt lat="48.848446" lon="2.331585" /><trkpt lat="48.848436" lon="2.331558" /><trkpt lat="48.848314" lon="2.331131" /><trkpt lat="48.848320" lon="2.331087" /><trkpt lat="48.848305" lon="2.331080" /><trkpt lat="48.848293" lon="2.331036" /><trkpt lat="48.848285" lon="2.331007" /><trkpt lat="48.848292" lon="2.330968" /><trkpt lat="48.848255" lon="2.330919" /><trkpt lat="48.848233" lon="2.330857" /><trkpt lat="48.847887" lon="2.329634" /><trkpt lat="48.847897" lon="2.329610" /><trkpt lat="48.847894" lon="2.329595" /><trkpt lat="48.847873" lon="2.329522" /><trkpt lat="48.847857" lon="2.329468" /><trkpt lat="48.847854" lon="2.329455" /><trkpt lat="48.847834" lon="2.329449" /><trkpt lat="48.847682" lon="2.328929" /><trkpt lat="48.847684" lon="2.328876" /><trkpt lat="48.847595" lon="2.328578" /><trkpt lat="48.847577" lon="2.328558" /><trkpt lat="48.847474" lon="2.328202" /><trkpt lat="48.847489" lon="2.328175" /><trkpt lat="48.847485" lon="2.328156" /><trkpt lat="48.847473" lon="2.328103" /><trkpt lat="48.847463" lon="2.328057" /><trkpt lat="48.847437" lon="2.327976" /><trkpt lat="48.847434" lon="2.327966" /><trkpt lat="48.847413" lon="2.327907" /><trkpt lat="48.847446" lon="2.327898" /><trkpt lat="48.847458" lon="2.327894" /><trkpt lat="48.847772" lon="2.327803" /><trkpt lat="48.847899" lon="2.327769" /></trkseg></trk><trk><name>05_V3_Malraux_Assemblee</name><desc>05-v10-20261005; 1.828 km Valhalla pedestrian; v3_refuge_b; no field inspection</desc><trkseg><trkpt lat="48.847899" lon="2.327769" /><trkpt lat="48.848057" lon="2.327726" /><trkpt lat="48.848082" lon="2.327717" /><trkpt lat="48.848336" lon="2.327644" /><trkpt lat="48.849939" lon="2.327193" /><trkpt lat="48.850030" lon="2.327171" /><trkpt lat="48.850110" lon="2.327149" /><trkpt lat="48.850727" lon="2.326975" /><trkpt lat="48.850912" lon="2.326924" /><trkpt lat="48.851232" lon="2.326837" /><trkpt lat="48.851411" lon="2.326796" /><trkpt lat="48.851702" lon="2.326709" /><trkpt lat="48.851805" lon="2.326681" /><trkpt lat="48.852050" lon="2.326597" /><trkpt lat="48.852183" lon="2.326552" /><trkpt lat="48.852302" lon="2.326514" /><trkpt lat="48.852393" lon="2.326485" /><trkpt lat="48.852478" lon="2.326457" /><trkpt lat="48.852625" lon="2.326416" /><trkpt lat="48.853319" lon="2.326220" /><trkpt lat="48.853414" lon="2.326193" /><trkpt lat="48.853513" lon="2.326166" /><trkpt lat="48.853521" lon="2.326091" /><trkpt lat="48.853526" lon="2.326067" /><trkpt lat="48.854204" lon="2.325879" /><trkpt lat="48.854243" lon="2.325867" /><trkpt lat="48.854431" lon="2.325806" /><trkpt lat="48.854445" lon="2.325786" /><trkpt lat="48.854456" lon="2.325793" /><trkpt lat="48.854485" lon="2.325784" /><trkpt lat="48.854523" lon="2.325777" /><trkpt lat="48.854549" lon="2.325738" /><trkpt lat="48.854572" lon="2.325767" /><trkpt lat="48.854583" lon="2.325768" /><trkpt lat="48.855688" lon="2.325456" /><trkpt lat="48.855712" lon="2.325430" /><trkpt lat="48.855757" lon="2.325426" /><trkpt lat="48.855803" lon="2.325408" /><trkpt lat="48.855831" lon="2.325401" /><trkpt lat="48.855846" lon="2.325398" /><trkpt lat="48.855917" lon="2.325384" /><trkpt lat="48.855938" lon="2.325380" /><trkpt lat="48.855958" lon="2.325375" /><trkpt lat="48.855999" lon="2.325363" /><trkpt lat="48.856036" lon="2.325331" /><trkpt lat="48.856084" lon="2.325346" /><trkpt lat="48.856309" lon="2.325263" /><trkpt lat="48.856809" lon="2.324573" /><trkpt lat="48.856812" lon="2.324564" /><trkpt lat="48.856832" lon="2.324527" /><trkpt lat="48.856857" lon="2.324494" /><trkpt lat="48.856883" lon="2.324460" /><trkpt lat="48.856894" lon="2.324446" /><trkpt lat="48.856911" lon="2.324441" /><trkpt lat="48.857603" lon="2.323799" /><trkpt lat="48.857835" lon="2.323477" /><trkpt lat="48.857851" lon="2.323486" /><trkpt lat="48.857873" lon="2.323487" /><trkpt lat="48.857911" lon="2.323481" /><trkpt lat="48.857924" lon="2.323480" /><trkpt lat="48.857950" lon="2.323486" /><trkpt lat="48.858011" lon="2.323398" /><trkpt lat="48.858061" lon="2.323353" /><trkpt lat="48.858353" lon="2.323095" /><trkpt lat="48.858355" lon="2.323075" /><trkpt lat="48.858375" lon="2.323069" /><trkpt lat="48.858416" lon="2.323038" /><trkpt lat="48.858441" lon="2.323020" /><trkpt lat="48.858444" lon="2.323000" /><trkpt lat="48.858468" lon="2.322983" /><trkpt lat="48.858742" lon="2.322710" /><trkpt lat="48.858872" lon="2.322580" /><trkpt lat="48.858986" lon="2.322481" /><trkpt lat="48.859003" lon="2.322466" /><trkpt lat="48.859033" lon="2.322502" /><trkpt lat="48.859062" lon="2.322521" /><trkpt lat="48.859122" lon="2.322562" /><trkpt lat="48.859163" lon="2.322523" /><trkpt lat="48.859701" lon="2.322000" /><trkpt lat="48.859740" lon="2.321962" /><trkpt lat="48.859992" lon="2.321718" /><trkpt lat="48.860086" lon="2.321629" /><trkpt lat="48.860258" lon="2.321472" /><trkpt lat="48.861017" lon="2.320780" /><trkpt lat="48.861200" lon="2.320617" /><trkpt lat="48.861274" lon="2.320547" /><trkpt lat="48.861417" lon="2.320413" /><trkpt lat="48.861496" lon="2.320334" /><trkpt lat="48.861918" lon="2.319905" /><trkpt lat="48.861949" lon="2.319875" /><trkpt lat="48.861970" lon="2.319855" /><trkpt lat="48.862036" lon="2.319787" /><trkpt lat="48.862175" lon="2.319656" /><trkpt lat="48.862289" lon="2.319520" /><trkpt lat="48.862317" lon="2.319565" /><trkpt lat="48.862338" lon="2.319599" /><trkpt lat="48.862427" lon="2.319498" /><trkpt lat="48.862483" lon="2.319536" /><trkpt lat="48.862517" lon="2.319558" /><trkpt lat="48.862535" lon="2.319571" /><trkpt lat="48.862542" lon="2.319576" /><trkpt lat="48.862555" lon="2.319584" /><trkpt lat="48.862579" lon="2.319600" /><trkpt lat="48.862676" lon="2.319298" /></trkseg></trk><trk><name>05_V4_Senat_final_ribera_norte</name><desc>05-v10-20261005; 2.623 km Valhalla pedestrian; v4_northbank; no field inspection</desc><trkseg><trkpt lat="48.849345" lon="2.337162" /><trkpt lat="48.849358" lon="2.337161" /><trkpt lat="48.849393" lon="2.337178" /><trkpt lat="48.850278" lon="2.337102" /><trkpt lat="48.851415" lon="2.337007" /><trkpt lat="48.851424" lon="2.336973" /><trkpt lat="48.851434" lon="2.336968" /><trkpt lat="48.851454" lon="2.336965" /><trkpt lat="48.851483" lon="2.336962" /><trkpt lat="48.851492" lon="2.336960" /><trkpt lat="48.851508" lon="2.336997" /><trkpt lat="48.851707" lon="2.336989" /><trkpt lat="48.851728" lon="2.336978" /><trkpt lat="48.851737" lon="2.336978" /><trkpt lat="48.851759" lon="2.336980" /><trkpt lat="48.851784" lon="2.336979" /><trkpt lat="48.851792" lon="2.336973" /><trkpt lat="48.851810" lon="2.336985" /><trkpt lat="48.851815" lon="2.337007" /><trkpt lat="48.851815" lon="2.337044" /><trkpt lat="48.851817" lon="2.337101" /><trkpt lat="48.851819" lon="2.337116" /><trkpt lat="48.852490" lon="2.337086" /><trkpt lat="48.852714" lon="2.337072" /><trkpt lat="48.852737" lon="2.337111" /><trkpt lat="48.852753" lon="2.337142" /><trkpt lat="48.852771" lon="2.337129" /><trkpt lat="48.852812" lon="2.337119" /><trkpt lat="48.852875" lon="2.337105" /><trkpt lat="48.852960" lon="2.337085" /><trkpt lat="48.852990" lon="2.337109" /><trkpt lat="48.853013" lon="2.337072" /><trkpt lat="48.853057" lon="2.337057" /><trkpt lat="48.853781" lon="2.337012" /><trkpt lat="48.853828" lon="2.337067" /><trkpt lat="48.853842" lon="2.337060" /><trkpt lat="48.853857" lon="2.337058" /><trkpt lat="48.853872" lon="2.337054" /><trkpt lat="48.853889" lon="2.337052" /><trkpt lat="48.853912" lon="2.337005" /><trkpt lat="48.853911" lon="2.336986" /><trkpt lat="48.853909" lon="2.336959" /><trkpt lat="48.853906" lon="2.336934" /><trkpt lat="48.853909" lon="2.336923" /><trkpt lat="48.854329" lon="2.336865" /><trkpt lat="48.854367" lon="2.336818" /><trkpt lat="48.854460" lon="2.336805" /><trkpt lat="48.854487" lon="2.336779" /><trkpt lat="48.854489" lon="2.336776" /><trkpt lat="48.854558" lon="2.336574" /><trkpt lat="48.854610" lon="2.336503" /><trkpt lat="48.854620" lon="2.336483" /><trkpt lat="48.854670" lon="2.336297" /><trkpt lat="48.854718" lon="2.336115" /><trkpt lat="48.854716" lon="2.336108" /><trkpt lat="48.854720" lon="2.336102" /><trkpt lat="48.854732" lon="2.336071" /><trkpt lat="48.854742" lon="2.336046" /><trkpt lat="48.854745" lon="2.336040" /><trkpt lat="48.854752" lon="2.336037" /><trkpt lat="48.854819" lon="2.335876" /><trkpt lat="48.854909" lon="2.335615" /><trkpt lat="48.854985" lon="2.335400" /><trkpt lat="48.855016" lon="2.335310" /><trkpt lat="48.855169" lon="2.334863" /><trkpt lat="48.855170" lon="2.334800" /><trkpt lat="48.855314" lon="2.334373" /><trkpt lat="48.855427" lon="2.334044" /><trkpt lat="48.855441" lon="2.334010" /><trkpt lat="48.855438" lon="2.333980" /><trkpt lat="48.855439" lon="2.333969" /><trkpt lat="48.855451" lon="2.333923" /><trkpt lat="48.855464" lon="2.333884" /><trkpt lat="48.855467" lon="2.333868" /><trkpt lat="48.855488" lon="2.333857" /><trkpt lat="48.855592" lon="2.333559" /><trkpt lat="48.855601" lon="2.333566" /><trkpt lat="48.855629" lon="2.333591" /><trkpt lat="48.855656" lon="2.333613" /><trkpt lat="48.855664" lon="2.333622" /><trkpt lat="48.855719" lon="2.333467" /><trkpt lat="48.855814" lon="2.333201" /><trkpt lat="48.856152" lon="2.332246" /><trkpt lat="48.856270" lon="2.331910" /><trkpt lat="48.856311" lon="2.331784" /><trkpt lat="48.856336" lon="2.331753" /><trkpt lat="48.856340" lon="2.331739" /><trkpt lat="48.856357" lon="2.331710" /><trkpt lat="48.856375" lon="2.331672" /><trkpt lat="48.856380" lon="2.331662" /><trkpt lat="48.856373" lon="2.331652" /><trkpt lat="48.856379" lon="2.331622" /><trkpt lat="48.856798" lon="2.330512" /><trkpt lat="48.857265" lon="2.329270" /><trkpt lat="48.857308" lon="2.329169" /><trkpt lat="48.857371" lon="2.329020" /><trkpt lat="48.857395" lon="2.329010" /><trkpt lat="48.857430" lon="2.329007" /><trkpt lat="48.857514" lon="2.329067" /><trkpt lat="48.857560" lon="2.329077" /><trkpt lat="48.857900" lon="2.329315" /><trkpt lat="48.857905" lon="2.329340" /><trkpt lat="48.857911" lon="2.329346" /><trkpt lat="48.857925" lon="2.329356" /><trkpt lat="48.857940" lon="2.329366" /><trkpt lat="48.857945" lon="2.329370" /><trkpt lat="48.857952" lon="2.329354" /><trkpt lat="48.857961" lon="2.329356" /><trkpt lat="48.858187" lon="2.329513" /><trkpt lat="48.858411" lon="2.329669" /><trkpt lat="48.858472" lon="2.329710" /><trkpt lat="48.858480" lon="2.329720" /><trkpt lat="48.858475" lon="2.329748" /><trkpt lat="48.858483" lon="2.329754" /><trkpt lat="48.858503" lon="2.329769" /><trkpt lat="48.858531" lon="2.329790" /><trkpt lat="48.858538" lon="2.329804" /><trkpt lat="48.858552" lon="2.329794" /><trkpt lat="48.858575" lon="2.329790" /><trkpt lat="48.858627" lon="2.329813" /><trkpt lat="48.858854" lon="2.329975" /><trkpt lat="48.858905" lon="2.330005" /><trkpt lat="48.859155" lon="2.330183" /><trkpt lat="48.859170" lon="2.330195" /><trkpt lat="48.859174" lon="2.330184" /><trkpt lat="48.859183" lon="2.330155" /><trkpt lat="48.859255" lon="2.330205" /><trkpt lat="48.859431" lon="2.329664" /><trkpt lat="48.859496" lon="2.329642" /><trkpt lat="48.859570" lon="2.329616" /><trkpt lat="48.859672" lon="2.329581" /><trkpt lat="48.860586" lon="2.330262" /><trkpt lat="48.860694" lon="2.330205" /><trkpt lat="48.860706" lon="2.330199" /><trkpt lat="48.860712" lon="2.330195" /><trkpt lat="48.860897" lon="2.330072" /><trkpt lat="48.860944" lon="2.329937" /><trkpt lat="48.861018" lon="2.329953" /><trkpt lat="48.861032" lon="2.329956" /><trkpt lat="48.861690" lon="2.327962" /><trkpt lat="48.861750" lon="2.327779" /><trkpt lat="48.862540" lon="2.325348" /><trkpt lat="48.862603" lon="2.325153" /><trkpt lat="48.863313" lon="2.322988" /><trkpt lat="48.863567" lon="2.322216" /><trkpt lat="48.863567" lon="2.322216" /><trkpt lat="48.863758" lon="2.321635" /><trkpt lat="48.863785" lon="2.321602" /><trkpt lat="48.863837" lon="2.321582" /><trkpt lat="48.863856" lon="2.321488" /><trkpt lat="48.863896" lon="2.321380" /><trkpt lat="48.864188" lon="2.320509" /><trkpt lat="48.864029" lon="2.320394" /><trkpt lat="48.863991" lon="2.320363" /><trkpt lat="48.863967" lon="2.320343" /><trkpt lat="48.863942" lon="2.320323" /><trkpt lat="48.863959" lon="2.320248" /><trkpt lat="48.863975" lon="2.320195" /><trkpt lat="48.863984" lon="2.320168" /><trkpt lat="48.864016" lon="2.320065" /><trkpt lat="48.864052" lon="2.319945" /><trkpt lat="48.864059" lon="2.319925" /><trkpt lat="48.864066" lon="2.319901" /><trkpt lat="48.864054" lon="2.319893" /><trkpt lat="48.863862" lon="2.319753" /></trkseg></trk><trk><name>05_V4_salida_Concorde</name><desc>05-v10-20261005; 0.531 km Valhalla pedestrian; v4_return; no field inspection</desc><trkseg><trkpt lat="48.863862" lon="2.319753" /><trkpt lat="48.864054" lon="2.319893" /><trkpt lat="48.864066" lon="2.319901" /><trkpt lat="48.864102" lon="2.319792" /><trkpt lat="48.864113" lon="2.319794" /><trkpt lat="48.864119" lon="2.319797" /><trkpt lat="48.864125" lon="2.319801" /><trkpt lat="48.864138" lon="2.319812" /><trkpt lat="48.864160" lon="2.319830" /><trkpt lat="48.864200" lon="2.319864" /><trkpt lat="48.864276" lon="2.319924" /><trkpt lat="48.864267" lon="2.319949" /><trkpt lat="48.864235" lon="2.320048" /><trkpt lat="48.864206" lon="2.320135" /><trkpt lat="48.864286" lon="2.320309" /><trkpt lat="48.864254" lon="2.320409" /><trkpt lat="48.864283" lon="2.320428" /><trkpt lat="48.864352" lon="2.320452" /><trkpt lat="48.864415" lon="2.320418" /><trkpt lat="48.864537" lon="2.320404" /><trkpt lat="48.864651" lon="2.320432" /><trkpt lat="48.864683" lon="2.320432" /><trkpt lat="48.864668" lon="2.320489" /><trkpt lat="48.864656" lon="2.320529" /><trkpt lat="48.864654" lon="2.320580" /><trkpt lat="48.864650" lon="2.320816" /><trkpt lat="48.864681" lon="2.320947" /><trkpt lat="48.864721" lon="2.321042" /><trkpt lat="48.864772" lon="2.321122" /><trkpt lat="48.864833" lon="2.321184" /><trkpt lat="48.865084" lon="2.321362" /><trkpt lat="48.865160" lon="2.321416" /><trkpt lat="48.865352" lon="2.321551" /><trkpt lat="48.865550" lon="2.321692" /><trkpt lat="48.865617" lon="2.321739" /><trkpt lat="48.865530" lon="2.322007" /><trkpt lat="48.865511" lon="2.322068" /><trkpt lat="48.865820" lon="2.322289" /><trkpt lat="48.865864" lon="2.322304" /><trkpt lat="48.865875" lon="2.322306" /><trkpt lat="48.865879" lon="2.322444" /><trkpt lat="48.865885" lon="2.322672" /><trkpt lat="48.865886" lon="2.322750" /><trkpt lat="48.865875" lon="2.322782" /><trkpt lat="48.865880" lon="2.322913" /><trkpt lat="48.865883" lon="2.323003" /><trkpt lat="48.865884" lon="2.323048" /><trkpt lat="48.866158" lon="2.323260" /><trkpt lat="48.866196" lon="2.323294" /><trkpt lat="48.866226" lon="2.323350" /><trkpt lat="48.866265" lon="2.323484" /><trkpt lat="48.866288" lon="2.323575" /><trkpt lat="48.866284" lon="2.323659" /><trkpt lat="48.866243" lon="2.323974" /><trkpt lat="48.866184" lon="2.323934" /></trkseg></trk><trk><name>05_V5_ArtsMetiers_Pantheon</name><desc>05-v10-20261005; 2.923 km Valhalla pedestrian; v5_omit_republique; no field inspection</desc><trkseg><trkpt lat="48.865462" lon="2.355543" /><trkpt lat="48.865462" lon="2.355469" /><trkpt lat="48.865461" lon="2.355442" /><trkpt lat="48.865390" lon="2.355446" /><trkpt lat="48.865361" lon="2.355448" /><trkpt lat="48.865332" lon="2.355448" /><trkpt lat="48.865278" lon="2.355448" /><trkpt lat="48.865261" lon="2.355448" /><trkpt lat="48.865237" lon="2.355447" /><trkpt lat="48.865150" lon="2.355080" /><trkpt lat="48.865048" lon="2.354664" /><trkpt lat="48.865043" lon="2.354645" /><trkpt lat="48.865034" lon="2.354604" /><trkpt lat="48.865021" lon="2.354554" /><trkpt lat="48.865005" lon="2.354492" /><trkpt lat="48.865002" lon="2.354476" /><trkpt lat="48.864990" lon="2.354379" /><trkpt lat="48.864809" lon="2.353586" /><trkpt lat="48.864792" lon="2.353535" /><trkpt lat="48.864788" lon="2.353520" /><trkpt lat="48.864774" lon="2.353469" /><trkpt lat="48.864761" lon="2.353426" /><trkpt lat="48.864756" lon="2.353410" /><trkpt lat="48.864761" lon="2.353388" /><trkpt lat="48.864745" lon="2.353349" /><trkpt lat="48.864741" lon="2.353328" /><trkpt lat="48.864729" lon="2.353271" /><trkpt lat="48.864718" lon="2.353219" /><trkpt lat="48.864711" lon="2.353189" /><trkpt lat="48.864701" lon="2.353108" /><trkpt lat="48.864520" lon="2.352290" /><trkpt lat="48.864475" lon="2.352088" /><trkpt lat="48.864385" lon="2.351680" /><trkpt lat="48.864369" lon="2.351660" /><trkpt lat="48.864161" lon="2.351540" /><trkpt lat="48.864153" lon="2.351532" /><trkpt lat="48.864119" lon="2.351513" /><trkpt lat="48.864088" lon="2.351495" /><trkpt lat="48.864082" lon="2.351490" /><trkpt lat="48.864059" lon="2.351485" /><trkpt lat="48.863506" lon="2.351168" /><trkpt lat="48.863435" lon="2.351146" /><trkpt lat="48.863418" lon="2.351136" /><trkpt lat="48.863369" lon="2.351106" /><trkpt lat="48.863318" lon="2.351075" /><trkpt lat="48.863305" lon="2.351067" /><trkpt lat="48.863292" lon="2.351018" /><trkpt lat="48.863187" lon="2.350974" /><trkpt lat="48.862557" lon="2.350636" /><trkpt lat="48.862004" lon="2.350325" /><trkpt lat="48.861985" lon="2.350337" /><trkpt lat="48.861966" lon="2.350327" /><trkpt lat="48.861952" lon="2.350319" /><trkpt lat="48.861937" lon="2.350310" /><trkpt lat="48.861922" lon="2.350303" /><trkpt lat="48.861923" lon="2.350275" /><trkpt lat="48.860861" lon="2.349697" /><trkpt lat="48.860600" lon="2.349556" /><trkpt lat="48.860545" lon="2.349516" /><trkpt lat="48.860540" lon="2.349513" /><trkpt lat="48.860504" lon="2.349490" /><trkpt lat="48.860518" lon="2.349448" /><trkpt lat="48.860539" lon="2.349363" /><trkpt lat="48.860562" lon="2.349271" /><trkpt lat="48.860565" lon="2.349256" /><trkpt lat="48.860583" lon="2.349191" /><trkpt lat="48.860547" lon="2.349172" /><trkpt lat="48.860156" lon="2.348968" /><trkpt lat="48.860085" lon="2.348933" /><trkpt lat="48.860012" lon="2.348908" /><trkpt lat="48.859984" lon="2.348894" /><trkpt lat="48.859606" lon="2.348671" /><trkpt lat="48.859591" lon="2.348656" /><trkpt lat="48.859566" lon="2.348639" /><trkpt lat="48.859543" lon="2.348625" /><trkpt lat="48.859529" lon="2.348620" /><trkpt lat="48.859504" lon="2.348609" /><trkpt lat="48.859200" lon="2.348441" /><trkpt lat="48.858679" lon="2.348143" /><trkpt lat="48.858650" lon="2.348104" /><trkpt lat="48.858622" lon="2.348086" /><trkpt lat="48.858594" lon="2.348075" /><trkpt lat="48.858562" lon="2.348062" /><trkpt lat="48.858525" lon="2.348046" /><trkpt lat="48.858511" lon="2.348041" /><trkpt lat="48.858493" lon="2.348032" /><trkpt lat="48.858474" lon="2.348044" /><trkpt lat="48.857882" lon="2.347711" /><trkpt lat="48.857861" lon="2.347661" /><trkpt lat="48.857828" lon="2.347643" /><trkpt lat="48.857772" lon="2.347607" /><trkpt lat="48.857698" lon="2.347557" /><trkpt lat="48.857674" lon="2.347542" /><trkpt lat="48.857743" lon="2.347272" /><trkpt lat="48.857745" lon="2.347211" /><trkpt lat="48.857771" lon="2.347111" /><trkpt lat="48.857799" lon="2.347006" /><trkpt lat="48.857807" lon="2.346969" /><trkpt lat="48.857707" lon="2.346907" /><trkpt lat="48.857445" lon="2.346750" /><trkpt lat="48.857437" lon="2.346725" /><trkpt lat="48.857419" lon="2.346717" /><trkpt lat="48.857338" lon="2.346722" /><trkpt lat="48.857268" lon="2.346731" /><trkpt lat="48.857250" lon="2.346735" /><trkpt lat="48.857211" lon="2.346842" /><trkpt lat="48.857192" lon="2.346857" /><trkpt lat="48.857171" lon="2.346864" /><trkpt lat="48.857177" lon="2.346909" /><trkpt lat="48.857168" lon="2.346982" /><trkpt lat="48.857157" lon="2.347060" /><trkpt lat="48.857126" lon="2.347164" /><trkpt lat="48.857115" lon="2.347140" /><trkpt lat="48.857106" lon="2.347134" /><trkpt lat="48.856824" lon="2.346958" /><trkpt lat="48.856684" lon="2.346871" /><trkpt lat="48.856672" lon="2.346913" /><trkpt lat="48.856660" lon="2.346957" /><trkpt lat="48.856217" lon="2.346687" /><trkpt lat="48.856209" lon="2.346682" /><trkpt lat="48.856178" lon="2.346663" /><trkpt lat="48.856150" lon="2.346644" /><trkpt lat="48.856099" lon="2.346609" /><trkpt lat="48.856082" lon="2.346597" /><trkpt lat="48.855515" lon="2.346248" /><trkpt lat="48.855493" lon="2.346234" /><trkpt lat="48.855423" lon="2.346168" /><trkpt lat="48.855310" lon="2.346061" /><trkpt lat="48.855284" lon="2.346035" /><trkpt lat="48.855220" lon="2.345975" /><trkpt lat="48.855095" lon="2.345864" /><trkpt lat="48.854493" lon="2.345233" /><trkpt lat="48.854371" lon="2.345111" /><trkpt lat="48.854355" lon="2.345098" /><trkpt lat="48.854295" lon="2.345040" /><trkpt lat="48.854247" lon="2.344995" /><trkpt lat="48.854217" lon="2.344965" /><trkpt lat="48.853809" lon="2.344552" /><trkpt lat="48.853791" lon="2.344568" /><trkpt lat="48.853779" lon="2.344611" /><trkpt lat="48.853747" lon="2.344722" /><trkpt lat="48.853731" lon="2.344779" /><trkpt lat="48.853719" lon="2.344772" /><trkpt lat="48.853724" lon="2.344754" /><trkpt lat="48.853739" lon="2.344701" /><trkpt lat="48.853744" lon="2.344681" /><trkpt lat="48.853751" lon="2.344657" /><trkpt lat="48.853764" lon="2.344606" /><trkpt lat="48.853766" lon="2.344602" /><trkpt lat="48.853778" lon="2.344560" /><trkpt lat="48.853762" lon="2.344560" /><trkpt lat="48.853746" lon="2.344560" /><trkpt lat="48.853699" lon="2.344559" /><trkpt lat="48.853631" lon="2.344557" /><trkpt lat="48.853621" lon="2.344546" /><trkpt lat="48.853571" lon="2.344486" /><trkpt lat="48.853501" lon="2.344416" /><trkpt lat="48.853381" lon="2.344355" /><trkpt lat="48.853366" lon="2.344350" /><trkpt lat="48.853348" lon="2.344352" /><trkpt lat="48.853327" lon="2.344354" /><trkpt lat="48.853263" lon="2.344282" /><trkpt lat="48.853186" lon="2.344206" /><trkpt lat="48.853080" lon="2.344125" /><trkpt lat="48.852872" lon="2.344023" /><trkpt lat="48.852766" lon="2.343988" /><trkpt lat="48.852754" lon="2.343982" /><trkpt lat="48.852730" lon="2.343974" /><trkpt lat="48.852706" lon="2.343964" /><trkpt lat="48.852690" lon="2.343959" /><trkpt lat="48.852664" lon="2.343953" /><trkpt lat="48.852678" lon="2.343877" /><trkpt lat="48.852697" lon="2.343792" /><trkpt lat="48.851929" lon="2.343422" /><trkpt lat="48.851843" lon="2.343380" /><trkpt lat="48.851763" lon="2.343341" /><trkpt lat="48.851593" lon="2.343263" /><trkpt lat="48.851398" lon="2.343172" /><trkpt lat="48.851343" lon="2.343145" /><trkpt lat="48.851253" lon="2.343103" /><trkpt lat="48.850691" lon="2.342835" /><trkpt lat="48.850626" lon="2.342803" /><trkpt lat="48.850426" lon="2.342707" /><trkpt lat="48.850308" lon="2.342644" /><trkpt lat="48.850167" lon="2.342563" /><trkpt lat="48.850004" lon="2.342466" /><trkpt lat="48.849915" lon="2.342412" /><trkpt lat="48.849774" lon="2.342326" /><trkpt lat="48.849607" lon="2.342220" /><trkpt lat="48.848921" lon="2.341806" /><trkpt lat="48.848862" lon="2.341771" /><trkpt lat="48.848836" lon="2.341755" /><trkpt lat="48.848718" lon="2.341684" /><trkpt lat="48.848669" lon="2.341655" /><trkpt lat="48.848629" lon="2.341630" /><trkpt lat="48.848371" lon="2.341472" /><trkpt lat="48.847752" lon="2.341101" /><trkpt lat="48.847566" lon="2.340982" /><trkpt lat="48.847548" lon="2.341046" /><trkpt lat="48.847540" lon="2.341072" /><trkpt lat="48.847535" lon="2.341091" /><trkpt lat="48.847468" lon="2.341074" /><trkpt lat="48.847422" lon="2.341087" /><trkpt lat="48.847386" lon="2.341116" /><trkpt lat="48.847363" lon="2.341201" /><trkpt lat="48.847337" lon="2.341187" /><trkpt lat="48.847270" lon="2.341152" /><trkpt lat="48.847218" lon="2.341125" /><trkpt lat="48.847198" lon="2.341115" /><trkpt lat="48.847123" lon="2.341370" /><trkpt lat="48.847028" lon="2.341798" /><trkpt lat="48.847026" lon="2.341824" /><trkpt lat="48.847024" lon="2.341841" /><trkpt lat="48.847018" lon="2.341895" /><trkpt lat="48.847012" lon="2.341942" /><trkpt lat="48.847008" lon="2.341955" /><trkpt lat="48.847000" lon="2.341981" /><trkpt lat="48.846913" lon="2.342283" /><trkpt lat="48.846824" lon="2.342694" /><trkpt lat="48.846833" lon="2.342736" /><trkpt lat="48.846823" lon="2.342781" /><trkpt lat="48.846813" lon="2.342823" /><trkpt lat="48.846811" lon="2.342835" /><trkpt lat="48.846790" lon="2.342930" /><trkpt lat="48.846776" lon="2.343001" /><trkpt lat="48.846735" lon="2.343182" /><trkpt lat="48.846708" lon="2.343296" /><trkpt lat="48.846703" lon="2.343316" /><trkpt lat="48.846693" lon="2.343362" /><trkpt lat="48.846691" lon="2.343375" /><trkpt lat="48.846682" lon="2.343415" /><trkpt lat="48.846617" lon="2.343699" /><trkpt lat="48.846475" lon="2.344343" /><trkpt lat="48.846389" lon="2.344482" /><trkpt lat="48.846230" lon="2.344606" /><trkpt lat="48.846034" lon="2.344754" /><trkpt lat="48.846039" lon="2.344771" /><trkpt lat="48.846064" lon="2.344873" /><trkpt lat="48.846079" lon="2.344933" /><trkpt lat="48.846074" lon="2.344959" /><trkpt lat="48.846295" lon="2.345073" /></trkseg></trk><trk><name>05_WC_Republique_ida</name><desc>05-v10-20261005; 0.178 km Valhalla pedestrian; wc_start; no field inspection</desc><trkseg><trkpt lat="48.867328" lon="2.363979" /><trkpt lat="48.867453" lon="2.364154" /><trkpt lat="48.867508" lon="2.364237" /><trkpt lat="48.867672" lon="2.364317" /><trkpt lat="48.867703" lon="2.364352" /><trkpt lat="48.867745" lon="2.364358" /><trkpt lat="48.867795" lon="2.364195" /><trkpt lat="48.867814" lon="2.364240" /><trkpt lat="48.867834" lon="2.364274" /><trkpt lat="48.867857" lon="2.364377" /><trkpt lat="48.868427" lon="2.363434" /></trkseg></trk><trk><name>05_WC_Republique_vuelta</name><desc>05-v10-20261005; 0.178 km Valhalla pedestrian; wc_start_back; no field inspection</desc><trkseg><trkpt lat="48.868427" lon="2.363434" /><trkpt lat="48.867857" lon="2.364377" /><trkpt lat="48.867834" lon="2.364274" /><trkpt lat="48.867814" lon="2.364240" /><trkpt lat="48.867795" lon="2.364195" /><trkpt lat="48.867745" lon="2.364358" /><trkpt lat="48.867703" lon="2.364352" /><trkpt lat="48.867672" lon="2.364317" /><trkpt lat="48.867508" lon="2.364237" /><trkpt lat="48.867453" lon="2.364154" /><trkpt lat="48.867328" lon="2.363979" /></trkseg></trk><trk><name>05_WC_QuatreFils</name><desc>05-v10-20261005; 0.195 km Valhalla pedestrian; wc_marais; no field inspection</desc><trkseg><trkpt lat="48.860542" lon="2.361719" /><trkpt lat="48.860532" lon="2.361717" /><trkpt lat="48.860404" lon="2.361493" /><trkpt lat="48.860080" lon="2.360913" /><trkpt lat="48.860023" lon="2.360808" /><trkpt lat="48.860045" lon="2.360768" /><trkpt lat="48.860075" lon="2.360711" /><trkpt lat="48.860045" lon="2.360768" /><trkpt lat="48.860001" lon="2.360685" /><trkpt lat="48.859984" lon="2.360651" /><trkpt lat="48.859969" lon="2.360623" /><trkpt lat="48.859957" lon="2.360600" /><trkpt lat="48.859929" lon="2.360644" /><trkpt lat="48.859510" lon="2.359956" /><trkpt lat="48.859501" lon="2.359943" /></trkseg></trk><trk><name>05_WC_Pantheon_SaintMichel_Senat</name><desc>05-v10-20261005; 1.129 km Valhalla pedestrian; wc_pantheon_final; no field inspection</desc><trkseg><trkpt lat="48.846295" lon="2.345073" /><trkpt lat="48.846074" lon="2.344959" /><trkpt lat="48.846079" lon="2.344933" /><trkpt lat="48.846064" lon="2.344873" /><trkpt lat="48.846039" lon="2.344771" /><trkpt lat="48.846034" lon="2.344754" /><trkpt lat="48.846230" lon="2.344606" /><trkpt lat="48.846389" lon="2.344482" /><trkpt lat="48.846475" lon="2.344343" /><trkpt lat="48.846617" lon="2.343699" /><trkpt lat="48.846682" lon="2.343415" /><trkpt lat="48.846691" lon="2.343375" /><trkpt lat="48.846693" lon="2.343362" /><trkpt lat="48.846703" lon="2.343316" /><trkpt lat="48.846708" lon="2.343296" /><trkpt lat="48.846735" lon="2.343182" /><trkpt lat="48.846776" lon="2.343001" /><trkpt lat="48.846790" lon="2.342930" /><trkpt lat="48.846811" lon="2.342835" /><trkpt lat="48.846813" lon="2.342823" /><trkpt lat="48.846823" lon="2.342781" /><trkpt lat="48.846833" lon="2.342736" /><trkpt lat="48.846824" lon="2.342694" /><trkpt lat="48.846913" lon="2.342283" /><trkpt lat="48.847000" lon="2.341981" /><trkpt lat="48.847008" lon="2.341955" /><trkpt lat="48.847012" lon="2.341942" /><trkpt lat="48.847018" lon="2.341895" /><trkpt lat="48.847024" lon="2.341841" /><trkpt lat="48.847026" lon="2.341824" /><trkpt lat="48.847028" lon="2.341798" /><trkpt lat="48.847123" lon="2.341370" /><trkpt lat="48.847198" lon="2.341115" /><trkpt lat="48.847216" lon="2.341019" /><trkpt lat="48.847207" lon="2.340944" /><trkpt lat="48.847173" lon="2.340899" /><trkpt lat="48.847052" lon="2.340841" /><trkpt lat="48.846988" lon="2.340803" /><trkpt lat="48.846937" lon="2.340829" /><trkpt lat="48.846928" lon="2.340821" /><trkpt lat="48.846857" lon="2.340780" /><trkpt lat="48.846830" lon="2.340764" /><trkpt lat="48.846810" lon="2.340753" /><trkpt lat="48.846770" lon="2.340730" /><trkpt lat="48.846733" lon="2.340709" /><trkpt lat="48.846715" lon="2.340699" /><trkpt lat="48.846690" lon="2.340685" /><trkpt lat="48.846681" lon="2.340622" /><trkpt lat="48.846618" lon="2.340621" /><trkpt lat="48.846464" lon="2.340534" /><trkpt lat="48.846419" lon="2.340508" /><trkpt lat="48.846398" lon="2.340487" /><trkpt lat="48.846276" lon="2.340431" /><trkpt lat="48.846263" lon="2.340421" /><trkpt lat="48.846231" lon="2.340402" /><trkpt lat="48.846204" lon="2.340384" /><trkpt lat="48.846193" lon="2.340377" /><trkpt lat="48.846208" lon="2.340322" /><trkpt lat="48.846232" lon="2.340229" /><trkpt lat="48.846251" lon="2.340155" /><trkpt lat="48.846258" lon="2.340129" /><trkpt lat="48.846271" lon="2.340076" /><trkpt lat="48.846159" lon="2.340014" /><trkpt lat="48.846271" lon="2.340076" /><trkpt lat="48.846258" lon="2.340129" /><trkpt lat="48.846251" lon="2.340155" /><trkpt lat="48.846232" lon="2.340229" /><trkpt lat="48.846277" lon="2.340254" /><trkpt lat="48.846325" lon="2.340281" /><trkpt lat="48.846715" lon="2.340505" /><trkpt lat="48.846763" lon="2.340533" /><trkpt lat="48.846821" lon="2.340565" /><trkpt lat="48.846930" lon="2.340633" /><trkpt lat="48.847333" lon="2.340855" /><trkpt lat="48.847388" lon="2.340883" /><trkpt lat="48.847566" lon="2.340982" /><trkpt lat="48.847752" lon="2.341101" /><trkpt lat="48.847778" lon="2.341019" /><trkpt lat="48.847824" lon="2.340966" /><trkpt lat="48.848827" lon="2.340488" /><trkpt lat="48.848897" lon="2.340459" /><trkpt lat="48.848882" lon="2.340392" /><trkpt lat="48.848889" lon="2.340361" /><trkpt lat="48.848931" lon="2.340169" /><trkpt lat="48.848992" lon="2.339893" /><trkpt lat="48.849075" lon="2.339161" /><trkpt lat="48.849077" lon="2.339035" /><trkpt lat="48.849072" lon="2.338871" /><trkpt lat="48.849066" lon="2.338694" /><trkpt lat="48.849108" lon="2.338601" /><trkpt lat="48.849179" lon="2.338428" /><trkpt lat="48.849195" lon="2.338338" /><trkpt lat="48.849234" lon="2.338347" /><trkpt lat="48.849239" lon="2.338347" /><trkpt lat="48.849301" lon="2.337899" /><trkpt lat="48.849320" lon="2.337898" /><trkpt lat="48.849322" lon="2.337883" /><trkpt lat="48.849332" lon="2.337848" /><trkpt lat="48.849347" lon="2.337812" /><trkpt lat="48.849356" lon="2.337776" /><trkpt lat="48.849351" lon="2.337761" /><trkpt lat="48.849350" lon="2.337725" /><trkpt lat="48.849402" lon="2.337473" /><trkpt lat="48.849401" lon="2.337427" /><trkpt lat="48.849399" lon="2.337323" /><trkpt lat="48.849396" lon="2.337203" /><trkpt lat="48.849393" lon="2.337178" /><trkpt lat="48.849358" lon="2.337161" /><trkpt lat="48.849345" lon="2.337162" /></trkseg></trk><trk><name>05_WC_SaintGermain</name><desc>05-v10-20261005; 0.842 km Valhalla pedestrian; wc_germain_final; no field inspection</desc><trkseg><trkpt lat="48.855016" lon="2.335310" /><trkpt lat="48.855169" lon="2.334863" /><trkpt lat="48.855170" lon="2.334800" /><trkpt lat="48.855314" lon="2.334373" /><trkpt lat="48.855427" lon="2.334044" /><trkpt lat="48.855441" lon="2.334010" /><trkpt lat="48.855438" lon="2.333980" /><trkpt lat="48.854987" lon="2.333842" /><trkpt lat="48.854528" lon="2.333703" /><trkpt lat="48.854531" lon="2.333691" /><trkpt lat="48.854540" lon="2.333651" /><trkpt lat="48.854551" lon="2.333606" /><trkpt lat="48.854554" lon="2.333592" /><trkpt lat="48.854548" lon="2.333574" /><trkpt lat="48.854535" lon="2.333574" /><trkpt lat="48.854514" lon="2.333562" /><trkpt lat="48.854488" lon="2.333549" /><trkpt lat="48.854482" lon="2.333538" /><trkpt lat="48.854516" lon="2.333400" /><trkpt lat="48.854178" lon="2.333240" /><trkpt lat="48.854113" lon="2.333223" /><trkpt lat="48.853939" lon="2.333163" /><trkpt lat="48.853993" lon="2.332916" /><trkpt lat="48.854020" lon="2.332895" /><trkpt lat="48.854046" lon="2.332814" /><trkpt lat="48.854040" lon="2.332761" /><trkpt lat="48.854043" lon="2.332740" /><trkpt lat="48.854050" lon="2.332703" /><trkpt lat="48.854062" lon="2.332680" /><trkpt lat="48.854220" lon="2.332043" /><trkpt lat="48.854319" lon="2.331582" /><trkpt lat="48.854440" lon="2.331088" /><trkpt lat="48.854463" lon="2.330992" /><trkpt lat="48.854525" lon="2.330739" /><trkpt lat="48.854554" lon="2.330598" /><trkpt lat="48.854659" lon="2.330637" /><trkpt lat="48.854699" lon="2.330637" /><trkpt lat="48.854862" lon="2.330705" /><trkpt lat="48.854971" lon="2.330779" /><trkpt lat="48.854975" lon="2.330742" /><trkpt lat="48.854983" lon="2.330706" /><trkpt lat="48.854992" lon="2.330668" /><trkpt lat="48.854995" lon="2.330654" /><trkpt lat="48.855110" lon="2.330699" /><trkpt lat="48.855121" lon="2.330676" /><trkpt lat="48.855195" lon="2.330478" /><trkpt lat="48.855450" lon="2.329869" /><trkpt lat="48.855454" lon="2.329855" /><trkpt lat="48.855449" lon="2.329843" /><trkpt lat="48.855451" lon="2.329839" /><trkpt lat="48.855465" lon="2.329812" /><trkpt lat="48.855480" lon="2.329786" /><trkpt lat="48.855484" lon="2.329775" /><trkpt lat="48.855810" lon="2.329903" /><trkpt lat="48.856722" lon="2.330253" /><trkpt lat="48.856777" lon="2.330270" /><trkpt lat="48.856798" lon="2.330260" /><trkpt lat="48.856935" lon="2.329909" /></trkseg></trk></gpx>