<?xml version="1.0" encoding="UTF-8"?>
<gpx version="1.1" creator="Cruce" xmlns="http://www.topografix.com/GPX/1/1">
  <metadata><name>Route 10 v1 — Paris on Stage After Dark</name><desc>5.487 km archived Valhalla total; simplified decision trace, not surveyed.</desc></metadata>
  <wpt lat="48.8741" lon="2.3446"><name>S01 Folies Bergere</name></wpt>
  <wpt lat="48.8720" lon="2.3316"><name>S02 Palais Garnier</name></wpt>
  <wpt lat="48.8785" lon="2.3303"><name>S03 Casino de Paris</name></wpt>
  <wpt lat="48.8841" lon="2.3322"><name>S04 Moulin Rouge</name></wpt>
  <wpt lat="48.8893" lon="2.3396"><name>S05 Au Lapin Agile</name></wpt>
  <wpt lat="48.8867" lon="2.3430"><name>S06 Sacre-Coeur forecourt</name></wpt>
  <wpt lat="48.8825" lon="2.3399"><name>S07 Madame Arthur</name></wpt>
  <trk><name>10-v1-20261006 simplified decision trace</name><trkseg>
    <trkpt lat="48.8741" lon="2.3446"/><trkpt lat="48.8720" lon="2.3316"/><trkpt lat="48.8785" lon="2.3303"/><trkpt lat="48.8841" lon="2.3322"/><trkpt lat="48.8893" lon="2.3396"/><trkpt lat="48.8867" lon="2.3430"/><trkpt lat="48.8825" lon="2.3399"/>
  </trkseg></trk>
</gpx>
