{"type":"FeatureCollection","name":"route-10-v1-20261006","features":[{"type":"Feature","properties":{"route_id":"10","version":"10-v1-20261006","distance_km":5.487,"geometry_kind":"simplified_decision_trace","surveyed":false},"geometry":{"type":"LineString","coordinates":[[2.3446,48.8741],[2.3316,48.8720],[2.3303,48.8785],[2.3322,48.8841],[2.3396,48.8893],[2.3430,48.8867],[2.3399,48.8825]]}},{"type":"Feature","properties":{"id":"S01","name":"Folies Bergère"},"geometry":{"type":"Point","coordinates":[2.3446,48.8741]}},{"type":"Feature","properties":{"id":"S02","name":"Palais Garnier"},"geometry":{"type":"Point","coordinates":[2.3316,48.8720]}},{"type":"Feature","properties":{"id":"S03","name":"Casino de Paris"},"geometry":{"type":"Point","coordinates":[2.3303,48.8785]}},{"type":"Feature","properties":{"id":"S04","name":"Moulin Rouge"},"geometry":{"type":"Point","coordinates":[2.3322,48.8841]}},{"type":"Feature","properties":{"id":"S05","name":"Au Lapin Agile"},"geometry":{"type":"Point","coordinates":[2.3396,48.8893]}},{"type":"Feature","properties":{"id":"S06","name":"Sacré-Cœur forecourt"},"geometry":{"type":"Point","coordinates":[2.3430,48.8867]}},{"type":"Feature","properties":{"id":"S07","name":"Madame Arthur"},"geometry":{"type":"Point","coordinates":[2.3399,48.8825]}}]}
