<?xml version="1.0" encoding="UTF-8"?>
<gpx version="1.1" creator="Cruce" xmlns="http://www.topografix.com/GPX/1/1">
  <metadata><name>Route 10 operational variants</name></metadata>
  <rte><name>V1 short inactive/rain</name><rtept lat="48.8741" lon="2.3446"><name>S01</name></rtept><rtept lat="48.8720" lon="2.3316"><name>S02</name></rtept><rtept lat="48.8785" lon="2.3303"><name>S03</name></rtept><rtept lat="48.8841" lon="2.3322"><name>S04</name></rtept><rtept lat="48.8825" lon="2.3399"><name>S07</name></rtept></rte>
  <rte><name>V2 finish Blanche</name><rtept lat="48.8741" lon="2.3446"><name>S01</name></rtept><rtept lat="48.8720" lon="2.3316"><name>S02</name></rtept><rtept lat="48.8785" lon="2.3303"><name>S03</name></rtept><rtept lat="48.8841" lon="2.3322"><name>S04 Blanche finish</name></rtept></rte>
  <rte><name>V4 skip Sacre-Coeur</name><rtept lat="48.8893" lon="2.3396"><name>S05</name></rtept><rtept lat="48.8825" lon="2.3399"><name>S07</name></rtept></rte>
</gpx>
