<?xml version="1.0" encoding="UTF-8"?><gpx version="1.1" creator="Cruce" xmlns="http://www.topografix.com/GPX/1/1"><metadata><name>Ruta20 two modules</name><desc>Tracks independientes; no unir como paseo.</desc></metadata><wpt lat="48.882780" lon="2.310240"><name>A01 Solitude</name></wpt><wpt lat="48.882550" lon="2.310390"><name>A02 Fers</name></wpt><wpt lat="48.835270" lon="2.409350"><name>B01-B02 Palais Porte Doree</name></wpt><wpt lat="48.834490" lon="2.408770"><name>B03 Marchand</name></wpt><trk><name>20A_Catroux_simplified</name><trkseg><trkpt lat="48.8829" lon="2.3095"/><trkpt lat="48.88278" lon="2.31024"/><trkpt lat="48.88255" lon="2.31039"/></trkseg></trk><trk><name>20B_PorteDoree_exterior_simplified</name><trkseg><trkpt lat="48.83527" lon="2.40935"/><trkpt lat="48.8350" lon="2.4090"/><trkpt lat="48.83449" lon="2.40877"/></trkseg></trk></gpx>
