{"type":"FeatureCollection","name":"route20_modules","features":[{"type":"Feature","properties":{"module":"20A","distance_km":0.210,"geometry_status":"simplified"},"geometry":{"type":"LineString","coordinates":[[2.3095,48.8829],[2.31024,48.88278],[2.31039,48.88255]]}},{"type":"Feature","properties":{"module":"20B","exterior_distance_km":0.310,"geometry_status":"simplified; interior excluded"},"geometry":{"type":"LineString","coordinates":[[2.40935,48.83527],[2.4090,48.8350],[2.40877,48.83449]]}}]}
