<?xml version="1.0" encoding="UTF-8"?><gpx version="1.1" creator="Cruce" xmlns="http://www.topografix.com/GPX/1/1"><metadata><name>Ruta23 Northwestern Belt</name><desc>Corredor simplificado; Valhalla 7.809 km controla.</desc></metadata>
<wpt lat="48.883700" lon="2.319100"><name>W01 Sainte-Marie</name></wpt><wpt lat="48.885500" lon="2.316700"><name>W02 Square Batignolles</name></wpt><wpt lat="48.888300" lon="2.315100"><name>W03 MLK sur</name></wpt><wpt lat="48.892900" lon="2.313000"><name>W04 MLK norte</name></wpt><wpt lat="48.888097" lon="2.310876"><name>W05 PC17 Saussure</name></wpt><wpt lat="48.887901" lon="2.306693"><name>W06 PC17 Pereire</name></wpt><wpt lat="48.885700" lon="2.298900"><name>W07 Promenade Pereire</name></wpt><wpt lat="48.878000" lon="2.282000"><name>W08 Maillot</name></wpt><wpt lat="48.876640" lon="2.281250"><name>W09 Parodi</name></wpt><wpt lat="48.876500" lon="2.260000"><name>W10 Mare bank approach</name></wpt><wpt lat="48.874110" lon="2.254970"><name>W11 Porte Madrid</name></wpt>
<trk><name>route23_simplified</name><trkseg><trkpt lat="48.8837" lon="2.3191"/><trkpt lat="48.8855" lon="2.3167"/><trkpt lat="48.8883" lon="2.3151"/><trkpt lat="48.8929" lon="2.313"/><trkpt lat="48.888097" lon="2.310876"/><trkpt lat="48.887901" lon="2.306693"/><trkpt lat="48.8857" lon="2.2989"/><trkpt lat="48.878" lon="2.282"/><trkpt lat="48.87664" lon="2.28125"/><trkpt lat="48.8766" lon="2.27"/><trkpt lat="48.8765" lon="2.26"/><trkpt lat="48.87411" lon="2.25497"/></trkseg></trk></gpx>
