<?xml version="1.0" encoding="UTF-8"?><gpx version="1.1" creator="Cruce" xmlns="http://www.topografix.com/GPX/1/1"><metadata><name>Ruta23 variantes</name><desc>Referencias rectas, no rutas certificadas.</desc></metadata><trk><name>V2_PC17_surface</name><trkseg><trkpt lat="48.888097" lon="2.310876"/><trkpt lat="48.887901" lon="2.306693"/></trkseg></trk><trk><name>V4_finish_Maillot</name><trkseg><trkpt lat="48.8857" lon="2.2989"/><trkpt lat="48.878" lon="2.282"/></trkseg></trk><trk><name>V5_Mare_to_Madrid_paved_reference</name><trkseg><trkpt lat="48.87664" lon="2.28125"/><trkpt lat="48.87411" lon="2.25497"/></trkseg></trk></gpx>
