<?xml version="1.0" encoding="UTF-8"?>
<gpx version="1.1" creator="Cruce" xmlns="http://www.topografix.com/GPX/1/1">
  <metadata><name>Route 25 Western Green Machinery</name><desc>Simplified public decision corridor; archived 7.794 km Valhalla total controls.</desc></metadata>
  <wpt lat="48.824800" lon="2.322800"><name>W01 PC14 Coulmiers</name></wpt><wpt lat="48.827323" lon="2.314599"><name>W02 PC14 Didot</name></wpt><wpt lat="48.832400" lon="2.301500"><name>W03 Brassens east</name></wpt><wpt lat="48.831000" lon="2.299200"><name>W04 Brassens central</name></wpt><wpt lat="48.831338" lon="2.296863"><name>W05 PC15 Dantzig</name></wpt><wpt lat="48.836100" lon="2.278300"><name>W06 PC15 Balard</name></wpt><wpt lat="48.839000" lon="2.274700"><name>W07 Citroen south</name></wpt><wpt lat="48.841600" lon="2.274500"><name>W08 Citroen central</name></wpt><wpt lat="48.842800" lon="2.272000"><name>W09 Citroen river exit</name></wpt><wpt lat="48.846300" lon="2.276000"><name>W10 Javel upper pavement</name></wpt><wpt lat="48.851500" lon="2.279400"><name>W11 Pont de Grenelle</name></wpt><wpt lat="48.850100" lon="2.279700"><name>W12 Ile aux Cygnes south</name></wpt>
  <trk><name>R25 base simplified</name><trkseg><trkpt lat="48.824800" lon="2.322800"/><trkpt lat="48.827323" lon="2.314599"/><trkpt lat="48.829000" lon="2.308000"/><trkpt lat="48.832400" lon="2.301500"/><trkpt lat="48.831000" lon="2.299200"/><trkpt lat="48.831338" lon="2.296863"/><trkpt lat="48.832500" lon="2.290000"/><trkpt lat="48.834000" lon="2.284000"/><trkpt lat="48.836100" lon="2.278300"/><trkpt lat="48.839000" lon="2.274700"/><trkpt lat="48.841600" lon="2.274500"/><trkpt lat="48.842800" lon="2.272000"/><trkpt lat="48.846300" lon="2.276000"/><trkpt lat="48.851500" lon="2.279400"/><trkpt lat="48.850100" lon="2.279700"/></trkseg></trk>
</gpx>
