{
  "type": "FeatureCollection",
  "name": "26 26-v2-20261007",
  "features": [
    {
      "type": "Feature",
      "properties": {
        "route_id": "26",
        "kind": "base_fixed_mixed_provenance_reference",
        "line_length_km": 1.407,
        "on_ground_verified": false,
        "manual_vertices_approximate": true
      },
      "geometry": {
        "type": "LineString",
        "coordinates": [
          [
            2.351445,
            48.846596
          ],
          [
            2.35146,
            48.846659
          ],
          [
            2.351489,
            48.846674
          ],
          [
            2.351554,
            48.846713
          ],
          [
            2.351523,
            48.846755
          ],
          [
            2.35136,
            48.846974
          ],
          [
            2.351239,
            48.84713
          ],
          [
            2.350713,
            48.84781
          ],
          [
            2.350679,
            48.847854
          ],
          [
            2.350505,
            48.848078
          ],
          [
            2.350302,
            48.848326
          ],
          [
            2.350271,
            48.848365
          ],
          [
            2.350126,
            48.848553
          ],
          [
            2.349949,
            48.84878
          ],
          [
            2.349835,
            48.848933
          ],
          [
            2.349708,
            48.84911
          ],
          [
            2.349475,
            48.849409
          ],
          [
            2.349311,
            48.849615
          ],
          [
            2.349266,
            48.849668
          ],
          [
            2.349225,
            48.849717
          ],
          [
            2.349179,
            48.849775
          ],
          [
            2.349179,
            48.849794
          ],
          [
            2.349234,
            48.84993
          ],
          [
            2.349106,
            48.849961
          ],
          [
            2.349005,
            48.849986
          ],
          [
            2.348844,
            48.850184
          ],
          [
            2.348773,
            48.850271
          ],
          [
            2.34869,
            48.850371
          ],
          [
            2.348618,
            48.850462
          ],
          [
            2.348602,
            48.850482
          ],
          [
            2.348396,
            48.850736
          ],
          [
            2.348342,
            48.850846
          ],
          [
            2.348199,
            48.851042
          ],
          [
            2.348191,
            48.851054
          ],
          [
            2.347981,
            48.851315
          ],
          [
            2.347956,
            48.851344
          ],
          [
            2.347764,
            48.851595
          ],
          [
            2.347694,
            48.851685
          ],
          [
            2.347766,
            48.851729
          ],
          [
            2.347831,
            48.851782
          ],
          [
            2.347936,
            48.851899
          ],
          [
            2.347972,
            48.851945
          ],
          [
            2.348122,
            48.852154
          ],
          [
            2.348192,
            48.852273
          ],
          [
            2.348238,
            48.852349
          ],
          [
            2.34828,
            48.852391
          ],
          [
            2.348292,
            48.852404
          ],
          [
            2.348302,
            48.852413
          ],
          [
            2.348311,
            48.852422
          ],
          [
            2.348326,
            48.852439
          ],
          [
            2.348333,
            48.852446
          ],
          [
            2.34839,
            48.852532
          ],
          [
            2.348487,
            48.85266
          ],
          [
            2.348553,
            48.852744
          ],
          [
            2.34857,
            48.852768
          ],
          [
            2.348763,
            48.853034
          ],
          [
            2.348782,
            48.85306
          ],
          [
            2.348847,
            48.85315
          ],
          [
            2.348,
            48.8536
          ],
          [
            2.34722,
            48.85372
          ],
          [
            2.345978,
            48.853957
          ],
          [
            2.345106,
            48.854381
          ],
          [
            2.34482,
            48.8545
          ],
          [
            2.3438,
            48.85482
          ],
          [
            2.3429,
            48.8551
          ],
          [
            2.341869,
            48.85544
          ]
        ]
      }
    },
    {
      "type": "Feature",
      "properties": {
        "id": "W01",
        "name": "BiliPo public approach"
      },
      "geometry": {
        "type": "Point",
        "coordinates": [
          2.351445,
          48.846596
        ]
      }
    },
    {
      "type": "Feature",
      "properties": {
        "id": "W02",
        "name": "Rue Monge pavement NOT museum reception"
      },
      "geometry": {
        "type": "Point",
        "coordinates": [
          2.349225,
          48.849717
        ]
      }
    },
    {
      "type": "Feature",
      "properties": {
        "id": "C01",
        "name": "Notre-Dame parvis connector"
      },
      "geometry": {
        "type": "Point",
        "coordinates": [
          2.348847,
          48.85315
        ]
      }
    },
    {
      "type": "Feature",
      "properties": {
        "id": "W03",
        "name": "Former36 documented public viewpoint"
      },
      "geometry": {
        "type": "Point",
        "coordinates": [
          2.341869,
          48.85544
        ]
      }
    },
    {
      "type": "Feature",
      "properties": {
        "id": "26B",
        "kind": "separate_street_module",
        "line_length_km": 0.067,
        "exact_private_door_pin": false
      },
      "geometry": {
        "type": "LineString",
        "coordinates": [
          [
            2.397708,
            48.835456
          ],
          [
            2.397236,
            48.834944
          ]
        ]
      }
    },
    {
      "type": "Feature",
      "properties": {
        "id": "26C",
        "kind": "separate_public_observation_NOT_tunnel"
      },
      "geometry": {
        "type": "Point",
        "coordinates": [
          2.300922,
          48.864211
        ]
      }
    }
  ]
}
